Latitude,Longitude,Number,Street,City,State,Zip,Base Elevation,Height
39.976789,-75.164189,1711,Jefferson St,Philadelphia,PA,19121,105.4,20
39.977543,-75.163688,1543,N Bouvier St,Philadelphia,PA,19121,107.5,30
39.977504,-75.163702,1541,N Bouvier St,Philadelphia,PA,19121,107.7,30
39.977588,-75.16368,1545,N Bouvier St,Philadelphia,PA,19121,107.2,30
39.977466,-75.163712,1539,N Bouvier St,Philadelphia,PA,19121,107.8,30
39.977071,-75.163454,1516,N 17th St,Philadelphia,PA,19121,107.4,40
39.977501,-75.163377,1530,N 17th St,Philadelphia,PA,19121,106.4,40
39.977435,-75.163392,1528,N 17th St,Philadelphia,PA,19121,106.3,40
39.977792,-75.163668,1716,W Oxford St,Philadelphia,PA,19121,105.6,40
39.977759,-75.163418,1708,W Oxford St,Philadelphia,PA,19121,105,40
39.977639,-75.16367,1547,N Bouvier St,Philadelphia,PA,19121,107.1,30
39.977347,-75.163716,1533,N Bouvier St,Philadelphia,PA,19121,108.5,30
39.977305,-75.163732,1531,N Bouvier St,Philadelphia,PA,19121,108.5,30
39.977262,-75.16374,1529,N Bouvier St,Philadelphia,PA,19121,108.5,30
39.97739,-75.163727,1535,N Bouvier St,Philadelphia,PA,19121,108.2,30
39.976902,-75.16349,1510,N 17th St,Philadelphia,PA,19121,108.2,40
39.976844,-75.163501,1508,N 17th St,Philadelphia,PA,19121,108.5,40
39.977732,-75.163213,1534,N 17th St,Philadelphia,PA,19121,104.6,20
39.977583,-75.163362,1532,N 17th St,Philadelphia,PA,19121,105.8,40
39.976814,-75.164385,1715,Jefferson St,Philadelphia,PA,19121,104.7,30
39.977897,-75.164492,1738,W Oxford St,Philadelphia,PA,19121,107.9,30
39.977888,-75.164422,1736,W Oxford St,Philadelphia,PA,19121,108.3,30
39.977879,-75.164357,1734,W Oxford St,Philadelphia,PA,19121,108.2,30
39.976609,-75.163549,1500,N 17th St,Philadelphia,PA,19121,108.2,40
40.012329,-75.185853,3351,Vaux St,Philadelphia,PA,19129,188.8,30
40.012362,-75.185892,3353,Vaux St,Philadelphia,PA,19129,191.1,30
40.012397,-75.185931,3355,Vaux St,Philadelphia,PA,19129,191.1,30
40.012425,-75.185975,3357,Vaux St,Philadelphia,PA,19129,190.8,30
40.012459,-75.18601,3359,Vaux St,Philadelphia,PA,19129,190.5,30
40.012492,-75.18605,3361,Vaux St,Philadelphia,PA,19129,190.6,30
40.012545,-75.185781,3349,Indian Queen Ln,Philadelphia,PA,19129,193.2,30
40.012524,-75.186089,3363,Vaux St,Philadelphia,PA,19129,190.5,30
40.012558,-75.186126,3365,Vaux St,Philadelphia,PA,19129,190.1,30
40.012589,-75.18617,3367,Vaux St,Philadelphia,PA,19129,190,30
40.012618,-75.185669,3345,Indian Queen Ln,Philadelphia,PA,19129,196.3,30
40.012621,-75.18621,3369,Vaux St,Philadelphia,PA,19129,189.9,30
40.012655,-75.185616,3343,Indian Queen Ln,Philadelphia,PA,19129,197.6,30
40.01265,-75.18625,3371,Vaux St,Philadelphia,PA,19129,189.6,30
40.012692,-75.185562,3341,Indian Queen Ln,Philadelphia,PA,19129,198.4,30
40.012683,-75.186286,3373,Vaux St,Philadelphia,PA,19129,189,30
40.012728,-75.185509,3339,Indian Queen Ln,Philadelphia,PA,19129,199.5,30
40.01272,-75.186328,3375,Vaux St,Philadelphia,PA,19129,187,30
40.012764,-75.185455,3337,Indian Queen Ln,Philadelphia,PA,19129,199.8,30
40.012754,-75.186045,3360,Bowman St,Philadelphia,PA,19129,192.2,30
40.012783,-75.186002,3358,Bowman St,Philadelphia,PA,19129,192.4,30
40.012802,-75.185401,3335,Indian Queen Ln,Philadelphia,PA,19129,201,30
40.012811,-75.18596,3356,Bowman St,Philadelphia,PA,19129,193.9,30
40.012838,-75.185347,3333,Indian Queen Ln,Philadelphia,PA,19129,201.7,30
40.012838,-75.185917,3354,Bowman St,Philadelphia,PA,19129,193.7,30
40.012868,-75.185876,3352,Bowman St,Philadelphia,PA,19129,194.9,30
40.012898,-75.185831,3350,Bowman St,Philadelphia,PA,19129,195.2,30
40.012911,-75.18524,3329,Indian Queen Ln,Philadelphia,PA,19129,203.7,30
40.012947,-75.185187,3327,Indian Queen Ln,Philadelphia,PA,19129,204.3,30
40.012928,-75.185788,3348,Bowman St,Philadelphia,PA,19129,195.4,30
40.012958,-75.185744,3346,Bowman St,Philadelphia,PA,19129,196.5,30
40.012984,-75.185135,3325,Indian Queen Ln,Philadelphia,PA,19129,205.6,30
40.012986,-75.185703,3344,Bowman St,Philadelphia,PA,19129,196.7,30
40.01302,-75.185081,3323,Indian Queen Ln,Philadelphia,PA,19129,206.1,30
40.013013,-75.185662,3342,Bowman St,Philadelphia,PA,19129,197.7,30
40.013056,-75.185028,3321,Indian Queen Ln,Philadelphia,PA,19129,206.4,30
40.013043,-75.18562,3340,Bowman St,Philadelphia,PA,19129,198.5,30
40.013072,-75.185578,3338,Bowman St,Philadelphia,PA,19129,199.3,30
40.013101,-75.185534,3336,Bowman St,Philadelphia,PA,19129,199.6,30
40.013129,-75.184923,3317,Indian Queen Ln,Philadelphia,PA,19129,208.6,30
40.01313,-75.185491,3334,Bowman St,Philadelphia,PA,19129,200.5,30
40.013165,-75.184869,3315,Indian Queen Ln,Philadelphia,PA,19129,209.3,30
40.01316,-75.185449,3332,Bowman St,Philadelphia,PA,19129,200.8,30
40.013189,-75.185405,3330,Bowman St,Philadelphia,PA,19129,202,30
40.013203,-75.184816,3313,Indian Queen Ln,Philadelphia,PA,19129,210.3,30
40.013219,-75.185363,3328,Bowman St,Philadelphia,PA,19129,202.1,30
40.01324,-75.18476,3311,Indian Queen Ln,Philadelphia,PA,19129,211.3,30
40.013248,-75.18532,3326,Bowman St,Philadelphia,PA,19129,203.1,30
40.013277,-75.184708,3309,Indian Queen Ln,Philadelphia,PA,19129,212,30
39.981191,-75.163588,1733,W Montgomery Ave,Philadelphia,PA,19121,104.9,50
39.981175,-75.163463,1729,W Montgomery Ave,Philadelphia,PA,19121,104.4,40
39.981183,-75.163526,1731,W Montgomery Ave,Philadelphia,PA,19121,104.9,40
39.981399,-75.163597,1805,N 18th St,Philadelphia,PA,19121,104.9,40
39.981353,-75.163605,1803,N 18th St,Philadelphia,PA,19121,104.6,30
39.982418,-75.163364,1849,N 18th St,Philadelphia,PA,19121,98.1,40
39.981166,-75.1634,1727,W Montgomery Ave,Philadelphia,PA,19121,104.3,40
39.981538,-75.163566,1811,N 18th St,Philadelphia,PA,19121,103.5,40
39.981585,-75.163556,1813,N 18th St,Philadelphia,PA,19121,103.1,40
39.981632,-75.163545,1815,N 18th St,Philadelphia,PA,19121,102.9,30
39.981216,-75.163776,1739,W Montgomery Ave,Philadelphia,PA,19121,105,40
39.982279,-75.163396,1843,N 18th St,Philadelphia,PA,19121,98.9,40
39.982377,-75.163044,1850,N Bouvier St,Philadelphia,PA,19121,101,30
39.982186,-75.163414,1839,N 18th St,Philadelphia,PA,19121,99.4,40
39.982049,-75.163453,1833,N 18th St,Philadelphia,PA,19121,100.6,40
39.982094,-75.163433,1835,N 18th St,Philadelphia,PA,19121,100.2,40
39.982002,-75.163464,1831,N 18th St,Philadelphia,PA,19121,100.7,40
39.98214,-75.163425,1837,N 18th St,Philadelphia,PA,19121,99.7,40
39.98177,-75.163515,1821,N 18th St,Philadelphia,PA,19121,102,30
39.981816,-75.163504,1823,N 18th St,Philadelphia,PA,19121,102.1,30
39.981909,-75.163484,1827,N 18th St,Philadelphia,PA,19121,101.9,30
39.981863,-75.163494,1825,N 18th St,Philadelphia,PA,19121,101.9,30
39.981482,-75.163248,1808,N Bouvier St,Philadelphia,PA,19121,105.1,30
39.981438,-75.163258,1806,N Bouvier St,Philadelphia,PA,19121,104.9,30
39.981394,-75.163267,1804,N Bouvier St,Philadelphia,PA,19121,104.7,30
39.981738,-75.163191,1820,N Bouvier St,Philadelphia,PA,19121,105.3,30
39.981352,-75.163276,1802,N Bouvier St,Philadelphia,PA,19121,104.5,30
39.981309,-75.163287,1800,N Bouvier St,Philadelphia,PA,19121,104.1,30
39.981696,-75.1632,1818,N Bouvier St,Philadelphia,PA,19121,105.5,30
39.981952,-75.163144,1830,N Bouvier St,Philadelphia,PA,19121,104.3,30
39.981866,-75.163164,1826,N Bouvier St,Philadelphia,PA,19121,104.8,30
39.981994,-75.163134,1832,N Bouvier St,Philadelphia,PA,19121,104,30
39.982035,-75.163119,1834,N Bouvier St,Philadelphia,PA,19121,103.9,30
39.98161,-75.16322,1814,N Bouvier St,Philadelphia,PA,19121,105.8,30
39.981909,-75.163154,1828,N Bouvier St,Philadelphia,PA,19121,104.4,30
39.982205,-75.163082,1842,N Bouvier St,Philadelphia,PA,19121,103.1,30
39.982247,-75.163072,1844,N Bouvier St,Philadelphia,PA,19121,103.1,30
39.98229,-75.163063,1846,N Bouvier St,Philadelphia,PA,19121,103,30
39.982121,-75.1631,1838,N Bouvier St,Philadelphia,PA,19121,103.5,30
39.982163,-75.16309,1840,N Bouvier St,Philadelphia,PA,19121,103.3,30
39.982078,-75.163109,1836,N Bouvier St,Philadelphia,PA,19121,103.6,30
39.981525,-75.163238,1810,N Bouvier St,Philadelphia,PA,19121,105.2,30
39.981568,-75.163229,1812,N Bouvier St,Philadelphia,PA,19121,105.5,30
39.981653,-75.16321,1816,N Bouvier St,Philadelphia,PA,19121,105.6,30
39.977242,-75.163419,1522,N 17th St,Philadelphia,PA,19121,106.9,40
39.977182,-75.16343,1520,N 17th St,Philadelphia,PA,19121,107.1,40
39.977301,-75.163406,1524,N 17th St,Philadelphia,PA,19121,107.1,30
39.976731,-75.163524,1504,N 17th St,Philadelphia,PA,19121,108.7,40
39.97787,-75.164234,1730,W Oxford St,Philadelphia,PA,19121,107.9,30
39.977862,-75.164174,1728,W Oxford St,Philadelphia,PA,19121,107.6,10
39.977877,-75.164295,1732,W Oxford St,Philadelphia,PA,19121,108.2,30
39.976785,-75.1639,1507,N Bouvier St,Philadelphia,PA,19121,107,30
39.976712,-75.163742,1701,Jefferson St,Philadelphia,PA,19121,107.6,40
39.977088,-75.163776,1521,N Bouvier St,Philadelphia,PA,19121,108.1,30
39.977131,-75.163767,1523,N Bouvier St,Philadelphia,PA,19121,108.4,40
39.977046,-75.163784,1519,N Bouvier St,Philadelphia,PA,19121,108.2,40
39.977002,-75.163793,1517,N Bouvier St,Philadelphia,PA,19121,108,30
39.977174,-75.163758,1525,N Bouvier St,Philadelphia,PA,19121,108.3,30
39.977218,-75.163749,1527,N Bouvier St,Philadelphia,PA,19121,108.7,30
39.977014,-75.163466,1514,N 17th St,Philadelphia,PA,19121,107.6,40
39.976958,-75.163476,1512,N 17th St,Philadelphia,PA,19121,107.9,40
39.977428,-75.163718,1537,N Bouvier St,Philadelphia,PA,19121,108.1,30
39.976868,-75.16382,1511,N Bouvier St,Philadelphia,PA,19121,107.3,30
39.976913,-75.163812,1513,N Bouvier St,Philadelphia,PA,19121,107.4,30
39.976957,-75.163802,1515,N Bouvier St,Philadelphia,PA,19121,107.6,30
40.013277,-75.185277,3324,Bowman St,Philadelphia,PA,19129,203.7,30
40.013312,-75.184654,3307,Indian Queen Ln,Philadelphia,PA,19129,212.7,30
40.013307,-75.185236,3322,Bowman St,Philadelphia,PA,19129,204.6,30
40.013348,-75.184602,3305,Indian Queen Ln,Philadelphia,PA,19129,213.4,30
40.013335,-75.185193,3320,Bowman St,Philadelphia,PA,19129,205.4,30
40.013363,-75.18515,3318,Bowman St,Philadelphia,PA,19129,206,30
40.013384,-75.184549,3303,Indian Queen Ln,Philadelphia,PA,19129,213.8,30
40.013393,-75.185107,3316,Bowman St,Philadelphia,PA,19129,207.5,30
40.013411,-75.184501,3301,Indian Queen Ln,Philadelphia,PA,19129,213.7,30
40.013423,-75.185065,3314,Bowman St,Philadelphia,PA,19129,207.4,30
40.013452,-75.185021,3312,Bowman St,Philadelphia,PA,19129,208,30
40.013481,-75.184979,3310,Bowman St,Philadelphia,PA,19129,208.8,30
40.013539,-75.184894,3306,Bowman St,Philadelphia,PA,19129,210.2,30
40.013568,-75.18485,3304,Bowman St,Philadelphia,PA,19129,210.5,30
40.013596,-75.184812,3302,Bowman St,Philadelphia,PA,19129,211.6,30
40.013621,-75.184767,3300,Bowman St,Philadelphia,PA,19129,211.5,30
40.013234,-75.187669,3500,Vaux St,Philadelphia,PA,19129,170.3,30
40.013306,-75.18775,3504,Vaux St,Philadelphia,PA,19129,171.7,30
40.013272,-75.187713,3502,Vaux St,Philadelphia,PA,19129,170.6,30
40.013339,-75.187788,3506,Vaux St,Philadelphia,PA,19129,172.2,30
40.013373,-75.187825,3508,Vaux St,Philadelphia,PA,19129,173.2,30
40.013406,-75.187864,3510,Vaux St,Philadelphia,PA,19129,174.2,30
40.013439,-75.187902,3512,Vaux St,Philadelphia,PA,19129,175.2,30
40.013472,-75.187938,3514,Vaux St,Philadelphia,PA,19129,176.2,30
40.013505,-75.187977,3516,Vaux St,Philadelphia,PA,19129,176.4,30
40.013538,-75.188016,3518,Vaux St,Philadelphia,PA,19129,177.4,30
40.013571,-75.188052,3520,Vaux St,Philadelphia,PA,19129,178.1,30
40.013607,-75.188094,3522,Vaux St,Philadelphia,PA,19129,178.6,30
40.01217,-75.189212,3501,Conrad St,Philadelphia,PA,19129,143.6,30
40.012211,-75.189259,3503,Conrad St,Philadelphia,PA,19129,145.8,30
40.012252,-75.189307,3505,Conrad St,Philadelphia,PA,19129,147.4,30
40.01232,-75.189315,3507,Conrad St,Philadelphia,PA,19129,149.1,30
40.012317,-75.189106,3461,Sunnyside Ave,Philadelphia,PA,19129,145.1,20
40.012361,-75.189362,3509,Conrad St,Philadelphia,PA,19129,150.1,30
40.012364,-75.189088,3459,Sunnyside Ave,Philadelphia,PA,19129,145.4,30
40.012393,-75.189045,3457,Sunnyside Ave,Philadelphia,PA,19129,145.3,30
40.012402,-75.18941,3511,Conrad St,Philadelphia,PA,19129,152.1,30
40.012423,-75.189002,3455,Sunnyside Ave,Philadelphia,PA,19129,145.5,30
40.012443,-75.189458,3513,Conrad St,Philadelphia,PA,19129,153.5,30
40.012452,-75.18896,3453,Sunnyside Ave,Philadelphia,PA,19129,145.6,30
40.012481,-75.188918,3451,Sunnyside Ave,Philadelphia,PA,19129,146.3,30
40.012532,-75.1889,3449,Sunnyside Ave,Philadelphia,PA,19129,147.3,30
40.012525,-75.189553,3517,Conrad St,Philadelphia,PA,19129,156.3,30
40.012542,-75.188835,3447,Sunnyside Ave,Philadelphia,PA,19129,148.1,30
40.012571,-75.188793,3445,Sunnyside Ave,Philadelphia,PA,19129,149,20
40.0126,-75.188749,3443,Sunnyside Ave,Philadelphia,PA,19129,149.9,20
40.012662,-75.189397,3462,Ainslie St,Philadelphia,PA,19129,162.6,20
40.012566,-75.1896,3519,Conrad St,Philadelphia,PA,19129,158,30
40.012665,-75.188706,3441,Sunnyside Ave,Philadelphia,PA,19129,150.9,20
40.012695,-75.188662,3439,Sunnyside Ave,Philadelphia,PA,19129,152.2,20
40.012723,-75.188622,3437,Sunnyside Ave,Philadelphia,PA,19129,152.9,20
40.012669,-75.189289,3460,Ainslie St,Philadelphia,PA,19129,164.8,20
40.012698,-75.189246,3458,Ainslie St,Philadelphia,PA,19129,165.7,20
40.01275,-75.188582,3435,Sunnyside Ave,Philadelphia,PA,19129,153.8,20
40.012727,-75.189204,3456,Ainslie St,Philadelphia,PA,19129,166.1,30
40.012807,-75.188504,3431,Sunnyside Ave,Philadelphia,PA,19129,155.5,20
40.012757,-75.189162,3454,Ainslie St,Philadelphia,PA,19129,166.5,20
40.012832,-75.188461,3429,Sunnyside Ave,Philadelphia,PA,19129,156.1,20
40.012782,-75.189115,3452,Ainslie St,Philadelphia,PA,19129,167,30
40.012812,-75.189073,3450,Ainslie St,Philadelphia,PA,19129,167.7,20
40.012865,-75.188414,3427,Sunnyside Ave,Philadelphia,PA,19129,157.3,30
40.012845,-75.189036,3448,Ainslie St,Philadelphia,PA,19129,168.2,30
40.012901,-75.188366,3425,Sunnyside Ave,Philadelphia,PA,19129,158.5,20
40.012873,-75.188995,3446,Ainslie St,Philadelphia,PA,19129,169,30
40.012929,-75.18832,3423,Sunnyside Ave,Philadelphia,PA,19129,158.9,20
40.012957,-75.188281,3421,Sunnyside Ave,Philadelphia,PA,19129,159.6,20
40.009618,-75.195266,4245,Ridge Ave,Philadelphia,PA,19129,35.6,30
40.009814,-75.195633,4255,Ridge Ave,Philadelphia,PA,19129,36.5,40
40.00972,-75.195198,3731,Stanton St,Philadelphia,PA,19129,43.4,20
40.009735,-75.195481,4251,Ridge Ave,Philadelphia,PA,19129,36,40
40.009661,-75.195414,4249,Ridge Ave,Philadelphia,PA,19129,35.7,30
40.009849,-75.195264,3727,Stanton St,Philadelphia,PA,19129,50.4,30
40.009882,-75.195241,3725,Stanton St,Philadelphia,PA,19129,52.4,30
40.009915,-75.195221,3723,Stanton St,Philadelphia,PA,19129,54,30
40.009946,-75.195198,3721,Stanton St,Philadelphia,PA,19129,56,30
40.009979,-75.195177,3719,Stanton St,Philadelphia,PA,19129,57.7,30
40.011717,-75.194351,3634,Calumet St,Philadelphia,PA,19129,123.4,20
40.011753,-75.194327,3632,Calumet St,Philadelphia,PA,19129,124,20
40.011681,-75.194375,3636,Calumet St,Philadelphia,PA,19129,122,20
40.011572,-75.194449,3642,Calumet St,Philadelphia,PA,19129,118.3,20
40.009783,-75.195552,4253,Ridge Ave,Philadelphia,PA,19129,36.3,40
40.010647,-75.195073,3692,Calumet St,Philadelphia,PA,19129,87.9,30
40.010797,-75.19497,3684,Calumet St,Philadelphia,PA,19129,94,30
40.010955,-75.194866,3676,Calumet St,Philadelphia,PA,19129,99.7,20
40.010991,-75.194839,3674,Calumet St,Philadelphia,PA,19129,101.7,20
40.010564,-75.195146,3696,Calumet St,Philadelphia,PA,19129,84.1,30
40.010911,-75.194556,3671,Stanton St,Philadelphia,PA,19129,101.1,30
40.010237,-75.195005,3707,Stanton St,Philadelphia,PA,19129,77.2,10
40.010605,-75.195104,3694,Calumet St,Philadelphia,PA,19129,85.7,30
40.010756,-75.194999,3686,Calumet St,Philadelphia,PA,19129,92.4,30
40.010719,-75.195023,3688,Calumet St,Philadelphia,PA,19129,90.5,30
40.010841,-75.194942,3682,Calumet St,Philadelphia,PA,19129,95.6,30
40.010918,-75.194889,3678,Calumet St,Philadelphia,PA,19129,98.4,20
40.010881,-75.194914,3680,Calumet St,Philadelphia,PA,19129,96.8,20
40.010261,-75.195332,3712,Calumet St,Philadelphia,PA,19129,70.6,30
40.009955,-75.195538,3728,Calumet St,Philadelphia,PA,19129,43.1,40
40.010332,-75.195281,3708,Calumet St,Philadelphia,PA,19129,74.9,30
40.010411,-75.195228,3704,Calumet St,Philadelphia,PA,19129,78.2,30
40.010525,-75.195166,3698,Calumet St,Philadelphia,PA,19129,82.7,30
40.010451,-75.1952,3702,Calumet St,Philadelphia,PA,19129,79.4,30
40.010294,-75.19531,3710,Calumet St,Philadelphia,PA,19129,72,20
39.986956,-75.156799,2227,N Carlisle St,Philadelphia,PA,19132,89,20
39.987403,-75.15652,2240-48,N Broad St,Philadelphia,PA,19132,82.2,50
39.986522,-75.155088,2210,N Park Ave,Philadelphia,PA,19132,82.4,20
39.986919,-75.156808,2225,N Carlisle St,Philadelphia,PA,19132,89,20
39.986843,-75.156825,2221,N Carlisle St,Philadelphia,PA,19132,89.3,20
39.986881,-75.156816,2223,N Carlisle St,Philadelphia,PA,19132,89.3,20
39.986727,-75.156552,2216,N Broad St,Philadelphia,PA,19132,89.4,10
39.986576,-75.156596,2200,N Broad St,Philadelphia,PA,19132,89.9,30
39.986816,-75.156502,2220,N Broad St,Philadelphia,PA,19132,90.5,40
39.986861,-75.15649,2222,N Broad St,Philadelphia,PA,19132,90.3,40
39.98674,-75.155042,2216-22,N Park Ave,Philadelphia,PA,19132,81.7,40
39.986994,-75.156791,2229,N Carlisle St,Philadelphia,PA,19132,88.7,20
39.987117,-75.15496,2240,N Park Ave,Philadelphia,PA,19132,81.2,40
39.987161,-75.15495,2242,N Park Ave,Philadelphia,PA,19132,80.9,30
39.987074,-75.154969,2238,N Park Ave,Philadelphia,PA,19132,81.2,30
39.986906,-75.156482,2224,N Broad St,Philadelphia,PA,19132,89.9,40
39.987204,-75.15494,2244,N Park Ave,Philadelphia,PA,19132,80.7,30
39.986902,-75.158936,2209,N Mole St,Philadelphia,PA,19132,83.7,20
39.987373,-75.158671,2234,N Sydenham St,Philadelphia,PA,19132,83.8,20
39.987336,-75.158311,2231,N Sydenham St,Philadelphia,PA,19132,82.9,20
39.987293,-75.158312,2229,N Sydenham St,Philadelphia,PA,19132,83.3,20
39.987018,-75.158403,2215,N Sydenham St,Philadelphia,PA,19132,84.5,20
39.986979,-75.158412,2213,N Sydenham St,Philadelphia,PA,19132,84.8,20
39.987057,-75.158395,2217,N Sydenham St,Philadelphia,PA,19132,84.4,20
39.987033,-75.158746,2216,N Sydenham St,Philadelphia,PA,19132,85.2,20
39.987071,-75.158737,2218,N Sydenham St,Philadelphia,PA,19132,84.7,20
39.987221,-75.158704,2226,N Sydenham St,Philadelphia,PA,19132,84.3,20
39.987108,-75.158729,2220,N Sydenham St,Philadelphia,PA,19132,84.4,20
39.987183,-75.158712,2224,N Sydenham St,Philadelphia,PA,19132,84.3,20
39.987297,-75.158687,2230,N Sydenham St,Philadelphia,PA,19132,83.9,20
39.987335,-75.158679,2232,N Sydenham St,Philadelphia,PA,19132,83.6,20
39.987259,-75.158695,2228,N Sydenham St,Philadelphia,PA,19132,83.8,20
39.986764,-75.158446,1507,W Susquehanna Ave,Philadelphia,PA,19121,85.5,30
39.986778,-75.158554,1511,W Susquehanna Ave,Philadelphia,PA,19121,85,40
39.987204,-75.158871,2225,N Mole St,Philadelphia,PA,19132,84.4,20
40.00992,-75.195663,3730,Calumet St,Philadelphia,PA,19129,42.1,40
40.01049,-75.19518,3700,Calumet St,Philadelphia,PA,19129,81.2,30
40.010373,-75.195258,3706,Calumet St,Philadelphia,PA,19129,76.5,30
40.010112,-75.195432,3720,Calumet St,Philadelphia,PA,19129,62.3,30
40.010073,-75.195459,3722,Calumet St,Philadelphia,PA,19129,59.8,30
40.010033,-75.195486,3724,Calumet St,Philadelphia,PA,19129,57.5,30
40.009993,-75.195513,3726,Calumet St,Philadelphia,PA,19129,52,30
40.01015,-75.195407,3718,Calumet St,Philadelphia,PA,19129,63.9,30
40.010187,-75.195382,3716,Calumet St,Philadelphia,PA,19129,66.6,10
40.011646,-75.194397,3638,Calumet St,Philadelphia,PA,19129,120.7,20
40.010286,-75.19497,3705,Stanton St,Philadelphia,PA,19129,74.6,30
40.008557,-75.191911,3644,Haywood St,Philadelphia,PA,19129,81,30
40.008439,-75.192846,4165,Ridge Ave,Philadelphia,PA,19129,30.9,30
40.008482,-75.191575,3640,Haywood St,Philadelphia,PA,19129,73.8,50
40.008232,-75.191889,4137,Ridge Ave,Philadelphia,PA,19129,28.8,30
40.008216,-75.191824,4135,Ridge Ave,Philadelphia,PA,19129,28.7,30
40.0082,-75.191761,4133,Ridge Ave,Philadelphia,PA,19129,28.8,30
40.008758,-75.193371,4187,Ridge Ave,Philadelphia,PA,19129,32.6,20
40.008952,-75.190753,3612-14,Haywood St,Philadelphia,PA,19129,98.1,30
40.008567,-75.193009,4173,Ridge Ave,Philadelphia,PA,19129,32.4,30
40.00879,-75.192503,3656,Haywood St,Philadelphia,PA,19129,77.8,40
40.008912,-75.192919,3670-72,Indian Queen Ln,Philadelphia,PA,19129,50.1,30
40.008596,-75.19305,4175,Ridge Ave,Philadelphia,PA,19129,32.4,30
40.008377,-75.192489,4155,Ridge Ave,Philadelphia,PA,19129,29.7,20
40.008687,-75.192253,3652,Haywood St,Philadelphia,PA,19129,74.2,40
40.00849,-75.192878,4167,Ridge Ave,Philadelphia,PA,19129,31.1,30
40.008514,-75.192924,4169,Ridge Ave,Philadelphia,PA,19129,31.7,30
40.008542,-75.192965,4171,Ridge Ave,Philadelphia,PA,19129,31.9,30
40.009241,-75.192597,3666,Haywood St,Philadelphia,PA,19129,74.8,40
40.009045,-75.190434,3602,Haywood St,Philadelphia,PA,19129,100.3,30
40.009064,-75.190368,3600,Haywood St,Philadelphia,PA,19129,98.9,40
40.008826,-75.191097,3630,Haywood St,Philadelphia,PA,19129,100.3,40
40.008738,-75.191277,3634,Haywood St,Philadelphia,PA,19129,92.2,40
40.008932,-75.19093,3620,Haywood St,Philadelphia,PA,19129,102.4,30
40.008992,-75.190905,3618,Haywood St,Philadelphia,PA,19129,103.1,30
40.009004,-75.190855,3616,Haywood St,Philadelphia,PA,19129,102.9,30
40.009024,-75.190503,3604,Haywood St,Philadelphia,PA,19129,99.8,30
40.009005,-75.190571,3606,Haywood St,Philadelphia,PA,19129,102.4,30
40.00862,-75.191424,3636,Haywood St,Philadelphia,PA,19129,86.2,30
40.009024,-75.192477,3660,Haywood St,Philadelphia,PA,19129,76.4,40
40.008343,-75.192355,4151,Ridge Ave,Philadelphia,PA,19129,29.4,20
40.008308,-75.192219,4147,Ridge Ave,Philadelphia,PA,19129,29.1,30
40.00836,-75.192421,4153,Ridge Ave,Philadelphia,PA,19129,29.5,20
40.008429,-75.192693,4161,Ridge Ave,Philadelphia,PA,19129,30.2,30
40.008412,-75.192625,4159,Ridge Ave,Philadelphia,PA,19129,30,20
40.008445,-75.192762,4163,Ridge Ave,Philadelphia,PA,19129,30.5,30
40.008394,-75.192558,4157,Ridge Ave,Philadelphia,PA,19129,30.1,20
40.008265,-75.192048,4141-43,Ridge Ave,Philadelphia,PA,19129,28.8,20
40.008291,-75.19215,4145,Ridge Ave,Philadelphia,PA,19129,29.1,30
40.008849,-75.193102,3676,Indian Queen Ln,Philadelphia,PA,19129,43.7,30
40.00888,-75.193058,3674,Indian Queen Ln,Philadelphia,PA,19129,46.6,20
40.008786,-75.193417,4189,Ridge Ave,Philadelphia,PA,19129,32.8,30
40.008626,-75.192081,3648,Haywood St,Philadelphia,PA,19129,79.6,40
40.008995,-75.192824,3626,Indian Queen Ln,Philadelphia,PA,19129,59.8,30
39.987031,-75.154978,2236,N Park Ave,Philadelphia,PA,19132,82.6,10
39.987291,-75.154922,2248,N Park Ave,Philadelphia,PA,19132,80.5,30
39.987248,-75.154932,2246,N Park Ave,Philadelphia,PA,19132,81.7,10
39.987084,-75.156582,2230,N Broad St,Philadelphia,PA,19132,88.2,20
39.986366,-75.155122,1323,W Susquehanna Ave,Philadelphia,PA,19122,85.3,20
39.986859,-75.155016,2228,N Park Ave,Philadelphia,PA,19132,82,30
39.986902,-75.155007,2230,N Park Ave,Philadelphia,PA,19132,81.9,30
39.986945,-75.154997,2232,N Park Ave,Philadelphia,PA,19132,81.9,30
39.986988,-75.154988,2234,N Park Ave,Philadelphia,PA,19132,81.6,30
40.012983,-75.188245,3419,Sunnyside Ave,Philadelphia,PA,19129,160,20
40.01293,-75.188913,3442,Ainslie St,Philadelphia,PA,19129,169.8,20
40.013013,-75.188203,3417,Sunnyside Ave,Philadelphia,PA,19129,161.8,20
40.012958,-75.188872,3440,Ainslie St,Philadelphia,PA,19129,170.2,30
40.012969,-75.1888,3436,Ainslie St,Philadelphia,PA,19129,171.1,20
40.013043,-75.188156,3415,Sunnyside Ave,Philadelphia,PA,19129,163,20
40.013005,-75.188754,3434,Ainslie St,Philadelphia,PA,19129,172.3,20
40.013076,-75.188114,3413,Sunnyside Ave,Philadelphia,PA,19129,163.9,20
40.013032,-75.188709,3432,Ainslie St,Philadelphia,PA,19129,172.8,20
40.013144,-75.188014,3411,Sunnyside Ave,Philadelphia,PA,19129,164.5,10
40.013062,-75.18867,3430,Ainslie St,Philadelphia,PA,19129,173.2,20
40.013091,-75.188631,3428,Ainslie St,Philadelphia,PA,19129,173.3,20
40.013147,-75.188547,3424,Ainslie St,Philadelphia,PA,19129,173.2,30
40.013176,-75.188504,3422,Ainslie St,Philadelphia,PA,19129,174.8,20
40.013206,-75.188462,3420,Ainslie St,Philadelphia,PA,19129,175.2,30
40.013234,-75.188418,3418,Ainslie St,Philadelphia,PA,19129,175.6,20
40.013265,-75.188376,3416,Ainslie St,Philadelphia,PA,19129,176.2,20
40.013295,-75.188332,3414,Ainslie St,Philadelphia,PA,19129,177,20
40.01334,-75.188304,3412,Ainslie St,Philadelphia,PA,19129,177,20
40.013377,-75.18825,3410,Ainslie St,Philadelphia,PA,19129,177.6,20
40.013414,-75.188167,3408,Ainslie St,Philadelphia,PA,19129,174.4,30
40.011343,-75.194266,3649,Stanton St,Philadelphia,PA,19129,107,20
40.010171,-75.19505,3709,Stanton St,Philadelphia,PA,19129,67.1,40
40.01012,-75.195082,3711,Stanton St,Philadelphia,PA,19129,65.7,30
40.011118,-75.194755,3666,Calumet St,Philadelphia,PA,19129,107.7,30
40.011174,-75.194717,3664,Calumet St,Philadelphia,PA,19129,107.9,20
40.01121,-75.194693,3662,Calumet St,Philadelphia,PA,19129,108.5,30
40.011273,-75.19465,3658,Calumet St,Philadelphia,PA,19129,110.3,30
40.011746,-75.193971,3629,Stanton St,Philadelphia,PA,19129,111,10
40.011247,-75.194331,3653,Stanton St,Philadelphia,PA,19129,106.2,30
40.011531,-75.194139,3641,Stanton St,Philadelphia,PA,19129,108.8,30
40.011596,-75.194096,3637,Stanton St,Philadelphia,PA,19129,109.6,30
40.011562,-75.194119,3639,Stanton St,Philadelphia,PA,19129,109.1,10
40.011669,-75.194045,3633,Stanton St,Philadelphia,PA,19129,110.3,20
40.011466,-75.194183,3643,Stanton St,Philadelphia,PA,19129,108.7,10
40.011632,-75.19407,3635,Stanton St,Philadelphia,PA,19129,109.8,20
40.010618,-75.194756,3687,Stanton St,Philadelphia,PA,19129,92.8,10
40.011054,-75.194459,3663,Stanton St,Philadelphia,PA,19129,104.6,30
40.011018,-75.194482,3665,Stanton St,Philadelphia,PA,19129,104.1,30
40.010838,-75.194604,3675,Stanton St,Philadelphia,PA,19129,97.3,30
40.010802,-75.194628,3677,Stanton St,Philadelphia,PA,19129,95.3,30
40.010765,-75.194653,3679,Stanton St,Philadelphia,PA,19129,93.4,30
40.010728,-75.194679,3681,Stanton St,Philadelphia,PA,19129,92.2,30
40.010067,-75.195119,3713-15,Stanton St,Philadelphia,PA,19129,63.6,30
40.011392,-75.194233,3647,Stanton St,Philadelphia,PA,19129,107.7,10
40.01051,-75.194827,3693,Stanton St,Philadelphia,PA,19129,82.2,30
40.010475,-75.194862,3695,Stanton St,Philadelphia,PA,19129,81.7,30
40.010439,-75.194891,3697,Stanton St,Philadelphia,PA,19129,79.7,30
40.010397,-75.194902,3699,Stanton St,Philadelphia,PA,19129,77.5,30
40.010359,-75.194922,3701,Stanton St,Philadelphia,PA,19129,76.3,30
40.010691,-75.194702,3683,Stanton St,Philadelphia,PA,19129,90.4,30
40.010655,-75.194727,3685,Stanton St,Philadelphia,PA,19129,88.7,20
40.010578,-75.194774,3689,Stanton St,Philadelphia,PA,19129,85.7,30
40.0112,-75.194365,3655,Stanton St,Philadelphia,PA,19129,105.9,30
40.011131,-75.194408,3659,Stanton St,Philadelphia,PA,19129,105.8,30
40.01116,-75.194382,3657,Stanton St,Philadelphia,PA,19129,105.7,20
40.01161,-75.194423,3640,Calumet St,Philadelphia,PA,19129,119.5,20
40.0115,-75.194498,3646,Calumet St,Philadelphia,PA,19129,115.1,20
40.011536,-75.194472,3644,Calumet St,Philadelphia,PA,19129,116.8,20
40.011464,-75.194521,3648,Calumet St,Philadelphia,PA,19129,114.4,20
40.011786,-75.194303,3630,Calumet St,Philadelphia,PA,19129,125.4,20
40.011823,-75.194268,3628,Calumet St,Philadelphia,PA,19129,127.2,40
40.011429,-75.194546,3650,Calumet St,Philadelphia,PA,19129,113.9,20
40.011338,-75.194606,3654-56,Calumet St,Philadelphia,PA,19129,112,10
40.011393,-75.194569,3652,Calumet St,Philadelphia,PA,19129,113,30
39.986709,-75.162463,2131,N 18th St,Philadelphia,PA,19121,84.6,40
39.986664,-75.162969,2136,N 18th St,Philadelphia,PA,19121,86.5,30
39.986707,-75.16296,2138,N 18th St,Philadelphia,PA,19121,85.8,40
39.986978,-75.163037,1808,W Susquehanna Ave,Philadelphia,PA,19121,86.5,20
39.98675,-75.162952,2140,N 18th St,Philadelphia,PA,19121,85.2,40
39.986691,-75.161445,1700-8,W Susquehanna Ave,Philadelphia,PA,19121,84.7,30
39.987474,-75.162106,2216,N Bouvier St,Philadelphia,PA,19132,84.9,20
39.9768,-75.162971,1509,N 17th St,Philadelphia,PA,19121,108.4,30
39.976898,-75.162621,1518,Willington St,Philadelphia,PA,19121,105.8,30
39.976812,-75.162641,1514,Willington St,Philadelphia,PA,19121,106.3,40
39.976769,-75.162649,1512,Willington St,Philadelphia,PA,19121,106.9,30
39.977392,-75.162845,1529,N 17th St,Philadelphia,PA,19121,105.9,40
39.97711,-75.162575,1528,Willington St,Philadelphia,PA,19121,105.7,40
39.977069,-75.162583,1526,Willington St,Philadelphia,PA,19121,106,40
39.977152,-75.162565,1530,Willington St,Philadelphia,PA,19121,105.8,30
39.976503,-75.162697,1621,Jefferson St,Philadelphia,PA,19121,106.6,40
39.976558,-75.162692,1502,Willington St,Philadelphia,PA,19121,107.2,30
39.977102,-75.162905,1519,N 17th St,Philadelphia,PA,19121,107.2,40
39.977276,-75.162868,1525,N 17th St,Philadelphia,PA,19121,106.7,30
39.977218,-75.16288,1523,N 17th St,Philadelphia,PA,19121,106.6,30
39.97739,-75.162517,1540-42,Willington St,Philadelphia,PA,19121,103,40
39.977279,-75.16254,1536,Willington St,Philadelphia,PA,19121,104.9,30
39.976598,-75.162684,1504,Willington St,Philadelphia,PA,19121,107.4,30
39.976641,-75.162675,1506,Willington St,Philadelphia,PA,19121,107.5,30
39.976542,-75.163009,1501,N 17th St,Philadelphia,PA,19121,108.7,40
39.977451,-75.162832,1531,N 17th St,Philadelphia,PA,19121,105.8,30
39.976927,-75.162944,1513,N 17th St,Philadelphia,PA,19121,107.9,30
39.977237,-75.162548,1534,Willington St,Philadelphia,PA,19121,105.4,30
39.977195,-75.162557,1532,Willington St,Philadelphia,PA,19121,105.3,30
39.974453,-75.16005,1422,Master St,Philadelphia,PA,19121,88.5,40
39.974444,-75.159982,1420,Master St,Philadelphia,PA,19121,87.1,40
39.974462,-75.160119,1424,Master St,Philadelphia,PA,19121,89.3,40
39.977652,-75.162663,1622,W Oxford St,Philadelphia,PA,19121,103.5,20
39.974511,-75.160318,1430,Master St,Philadelphia,PA,19121,90.9,30
39.97452,-75.160386,1432,Master St,Philadelphia,PA,19121,90.5,40
39.974502,-75.16025,1428,Master St,Philadelphia,PA,19121,90.7,30
39.974471,-75.160187,1426,Master St,Philadelphia,PA,19121,89.9,40
39.976986,-75.162927,1515,N 17th St,Philadelphia,PA,19121,107.5,40
39.977468,-75.162519,1544,Willington St,Philadelphia,PA,19121,103,40
39.973891,-75.160113,1318,N Carlisle St,Philadelphia,PA,19121,81.3,30
39.973489,-75.160479,1301,N 15th St,Philadelphia,PA,19121,80.7,40
39.973928,-75.160387,1319,N 15th St,Philadelphia,PA,19121,85.6,30
39.973781,-75.160414,1313,N 15th St,Philadelphia,PA,19121,84.8,40
39.973853,-75.160389,1315-17,N 15th St,Philadelphia,PA,19121,84.7,40
39.974193,-75.160224,1325-37,N 15th St,Philadelphia,PA,19121,81.8,60
39.973516,-75.160117,1407,W Thompson St,Philadelphia,PA,19121,78.9,30
39.973525,-75.160183,1409,W Thompson St,Philadelphia,PA,19121,79.6,20
39.973529,-75.160251,1411,W Thompson St,Philadelphia,PA,19121,80.2,40
39.973731,-75.160417,1311,N 15th St,Philadelphia,PA,19121,85,30
39.973682,-75.160427,1309,N 15th St,Philadelphia,PA,19121,84.5,40
39.973635,-75.160446,1307,N 15th St,Philadelphia,PA,19121,83.2,40
39.973586,-75.160457,1305,N 15th St,Philadelphia,PA,19121,83.7,30
39.987038,-75.161221,2200,N 17th St,Philadelphia,PA,19132,81.8,40
39.987223,-75.16169,2206,N Colorado St,Philadelphia,PA,19132,83.5,20
39.987262,-75.161682,2208,N Colorado St,Philadelphia,PA,19132,83.7,20
39.987171,-75.161891,2203,N Bouvier St,Philadelphia,PA,19132,82.8,20
39.987209,-75.161883,2205,N Bouvier St,Philadelphia,PA,19132,83.5,20
39.987376,-75.161657,2214,N Colorado St,Philadelphia,PA,19132,84.3,20
39.987338,-75.161666,2212,N Colorado St,Philadelphia,PA,19132,84.3,20
39.9873,-75.161674,2210,N Colorado St,Philadelphia,PA,19132,83.8,20
39.987166,-75.158879,2223,N Mole St,Philadelphia,PA,19132,84.1,20
39.987117,-75.160289,2211,N Chadwick St,Philadelphia,PA,19132,82.4,20
39.987155,-75.160281,2213,N Chadwick St,Philadelphia,PA,19132,82.4,20
39.987193,-75.160273,2215,N Chadwick St,Philadelphia,PA,19132,82.4,20
39.986939,-75.160326,1623-25,W Susquehanna Ave,Philadelphia,PA,19132,80.8,40
39.987268,-75.160256,2219,N Chadwick St,Philadelphia,PA,19132,82.9,20
39.987307,-75.160248,2221,N Chadwick St,Philadelphia,PA,19132,83,20
39.987345,-75.160239,2223,N Chadwick St,Philadelphia,PA,19132,83,20
39.987382,-75.160231,2225,N Chadwick St,Philadelphia,PA,19132,83.1,20
39.987456,-75.160214,2229,N Chadwick St,Philadelphia,PA,19132,83.4,30
39.987326,-75.16006,2224,N Bancroft St,Philadelphia,PA,19132,82.7,20
39.988082,-75.159896,2264,N Bancroft St,Philadelphia,PA,19132,81.4,20
39.987853,-75.159946,2252,N Bancroft St,Philadelphia,PA,19132,82,20
39.987662,-75.159987,2242,N Bancroft St,Philadelphia,PA,19132,82.8,20
39.9877,-75.159979,2244,N Bancroft St,Philadelphia,PA,19132,82.8,20
39.988005,-75.159912,2260,N Bancroft St,Philadelphia,PA,19132,81.7,20
39.987892,-75.159938,2254,N Bancroft St,Philadelphia,PA,19132,82,20
39.987968,-75.159921,2258,N Bancroft St,Philadelphia,PA,19132,81.8,20
39.987472,-75.160028,2232,N Bancroft St,Philadelphia,PA,19132,83,20
39.987815,-75.159955,2250,N Bancroft St,Philadelphia,PA,19132,82.5,20
39.987215,-75.160085,2218,N Bancroft St,Philadelphia,PA,19132,82.6,20
39.987585,-75.160004,2238,N Bancroft St,Philadelphia,PA,19132,83,20
39.987435,-75.160036,2230,N Bancroft St,Philadelphia,PA,19132,82.9,20
39.987252,-75.160077,2220,N Bancroft St,Philadelphia,PA,19132,82.3,20
39.987178,-75.160094,2216,N Bancroft St,Philadelphia,PA,19132,82.4,20
39.98793,-75.15993,2256,N Bancroft St,Philadelphia,PA,19132,81.7,20
39.987141,-75.160101,2214,N Bancroft St,Philadelphia,PA,19132,82.7,20
39.987738,-75.15997,2246,N Bancroft St,Philadelphia,PA,19132,82.4,20
39.987777,-75.159963,2248,N Bancroft St,Philadelphia,PA,19132,82.5,20
39.987624,-75.159995,2240,N Bancroft St,Philadelphia,PA,19132,83.1,20
39.98751,-75.16002,2234,N Bancroft St,Philadelphia,PA,19132,83.4,20
39.987104,-75.160109,2212,N Bancroft St,Philadelphia,PA,19132,82.3,20
39.987547,-75.160013,2236,N Bancroft St,Philadelphia,PA,19132,83,20
39.987067,-75.160117,2210,N Bancroft St,Philadelphia,PA,19132,82.1,20
39.987399,-75.160045,2228,N Bancroft St,Philadelphia,PA,19132,82.8,20
39.987141,-75.159811,2217,N Bancroft St,Philadelphia,PA,19132,82.1,20
39.987068,-75.159828,2213,N Bancroft St,Philadelphia,PA,19132,81.5,20
39.987215,-75.159794,2221,N Bancroft St,Philadelphia,PA,19132,82.1,20
39.987289,-75.159779,2225,N Bancroft St,Philadelphia,PA,19132,82.5,20
39.987326,-75.159771,2227,N Bancroft St,Philadelphia,PA,19132,82.6,20
39.987363,-75.159763,2229,N Bancroft St,Philadelphia,PA,19132,83.2,20
39.987399,-75.159755,2231,N Bancroft St,Philadelphia,PA,19132,82.8,20
39.987436,-75.159747,2233,N Bancroft St,Philadelphia,PA,19132,82.7,20
39.987473,-75.15974,2235,N Bancroft St,Philadelphia,PA,19132,82.9,20
39.98751,-75.159731,2237,N Bancroft St,Philadelphia,PA,19132,82.4,20
39.987009,-75.159626,2210,N 16th St,Philadelphia,PA,19132,81.4,40
39.987053,-75.159617,2212,N 16th St,Philadelphia,PA,19132,81.4,40
39.987095,-75.159608,2214,N 16th St,Philadelphia,PA,19132,81.5,40
39.987138,-75.159599,2216,N 16th St,Philadelphia,PA,19132,81.8,30
39.987181,-75.159588,2218,N 16th St,Philadelphia,PA,19132,81.9,30
39.987224,-75.15958,2220,N 16th St,Philadelphia,PA,19132,82.1,30
39.987267,-75.159571,2222,N 16th St,Philadelphia,PA,19132,81.9,30
39.986892,-75.159584,1601-3,W Susquehanna Ave,Philadelphia,PA,19132,80.4,40
39.986898,-75.159665,1605,W Susquehanna Ave,Philadelphia,PA,19121,80.3,30
39.986905,-75.159715,1607,W Susquehanna Ave,Philadelphia,PA,19121,80.2,30
39.986911,-75.159766,1609,W Susquehanna Ave,Philadelphia,PA,19121,80.3,30
39.986922,-75.159869,1611-15,W Susquehanna Ave,Philadelphia,PA,19132,80.2,40
39.986535,-75.162999,2130,N 18th St,Philadelphia,PA,19121,87.2,40
39.986492,-75.163008,2128,N 18th St,Philadelphia,PA,19121,87.3,40
39.986577,-75.162987,2132,N 18th St,Philadelphia,PA,19121,87,40
39.98665,-75.161951,1729,French St,Philadelphia,PA,19121,86,20
39.986662,-75.162054,1733,French St,Philadelphia,PA,19121,86.2,20
39.986657,-75.162002,1731,French St,Philadelphia,PA,19121,86.2,20
39.986449,-75.163017,2126,N 18th St,Philadelphia,PA,19121,87.3,40
39.986,-75.163273,1801-19,Diamond St,Philadelphia,PA,19121,88.5,40
39.986681,-75.148812,2257,N 10th St,Philadelphia,PA,19133,89.4,30
39.987129,-75.158888,2221,N Mole St,Philadelphia,PA,19132,84.1,20
39.987318,-75.158847,2231,N Mole St,Philadelphia,PA,19132,84.3,20
39.987355,-75.158838,2233,N Mole St,Philadelphia,PA,19132,84.3,20
39.986783,-75.158799,2200-6,N Sydenham St,Philadelphia,PA,19132,83.7,30
39.986881,-75.158778,2208,N Sydenham St,Philadelphia,PA,19132,84.7,20
39.986919,-75.15877,2210,N Sydenham St,Philadelphia,PA,19132,85.2,20
39.986957,-75.158762,2212,N Sydenham St,Philadelphia,PA,19132,85.1,20
39.987134,-75.158346,2221,N Sydenham St,Philadelphia,PA,19132,83.9,20
39.987214,-75.158334,2225,N Sydenham St,Philadelphia,PA,19132,83.6,20
39.987094,-75.158351,2219,N Sydenham St,Philadelphia,PA,19132,84.1,20
39.986938,-75.15842,2211,N Sydenham St,Philadelphia,PA,19132,85.2,20
39.986897,-75.158429,2209,N Sydenham St,Philadelphia,PA,19132,85.2,20
39.986938,-75.158095,2214,N 15th St,Philadelphia,PA,19132,87.5,20
39.986811,-75.158083,2208,N 15th St,Philadelphia,PA,19132,88,40
39.986769,-75.158091,2206,N 15th St,Philadelphia,PA,19132,88.1,40
39.986727,-75.158101,2204,N 15th St,Philadelphia,PA,19132,88.1,40
39.986686,-75.158115,2202,N 15th St,Philadelphia,PA,19132,88.3,40
39.986641,-75.158124,2200,N 15th St,Philadelphia,PA,19132,86.8,40
39.986857,-75.158113,2210,N 15th St,Philadelphia,PA,19132,87.7,40
39.98729,-75.157991,2230,N 15th St,Philadelphia,PA,19132,85.9,20
39.98698,-75.158086,2216,N 15th St,Philadelphia,PA,19132,87.6,20
39.98715,-75.158015,2224,N 15th St,Philadelphia,PA,19132,87.1,20
39.98706,-75.158034,2220,N 15th St,Philadelphia,PA,19132,87.7,20
39.987105,-75.158025,2222,N 15th St,Philadelphia,PA,19132,87.2,20
39.987243,-75.158002,2228,N 15th St,Philadelphia,PA,19132,86.7,20
39.987197,-75.158012,2226,N 15th St,Philadelphia,PA,19132,86.6,20
39.987393,-75.15883,2235,N Mole St,Philadelphia,PA,19132,84.1,20
39.987562,-75.158631,2244,N Sydenham St,Philadelphia,PA,19132,82.8,20
39.987525,-75.158639,2242,N Sydenham St,Philadelphia,PA,19132,83.3,20
39.987411,-75.158663,2236,N Sydenham St,Philadelphia,PA,19132,83.8,20
39.987487,-75.158647,2240,N Sydenham St,Philadelphia,PA,19132,83.6,20
39.987449,-75.158655,2238,N Sydenham St,Philadelphia,PA,19132,83.5,20
39.986999,-75.160315,2205,N Chadwick St,Philadelphia,PA,19132,81.6,40
39.987039,-75.160306,2207,N Chadwick St,Philadelphia,PA,19132,81.8,40
39.986643,-75.161902,1727,French St,Philadelphia,PA,19121,85.9,20
39.987282,-75.162148,2206,N Bouvier St,Philadelphia,PA,19132,84.1,20
39.987244,-75.162156,2204,N Bouvier St,Philadelphia,PA,19132,84,20
39.986715,-75.163276,2135-37,N Gratz St,Philadelphia,PA,19121,89.8,20
39.986599,-75.163302,2131-33,N Gratz St,Philadelphia,PA,19121,90.6,20
39.987359,-75.162131,2210,N Bouvier St,Philadelphia,PA,19132,84.3,20
39.987397,-75.162122,2212,N Bouvier St,Philadelphia,PA,19132,84.3,20
39.987321,-75.16214,2208,N Bouvier St,Philadelphia,PA,19132,84.4,20
39.986857,-75.162096,1724,W Susquehanna Ave,Philadelphia,PA,19121,83.4,40
39.987404,-75.162341,2211,N 18th St,Philadelphia,PA,19132,84.3,30
39.987361,-75.16235,2209,N 18th St,Philadelphia,PA,19132,84.5,20
39.987317,-75.16236,2207,N 18th St,Philadelphia,PA,19132,84,30
39.986456,-75.163333,2127,N Gratz St,Philadelphia,PA,19121,91.7,40
39.986801,-75.162449,2135,N 18th St,Philadelphia,PA,19121,84.3,40
39.986828,-75.161876,1716,W Susquehanna Ave,Philadelphia,PA,19121,83.6,40
39.986836,-75.162932,2144,N 18th St,Philadelphia,PA,19121,84.5,40
39.986793,-75.162942,2142,N 18th St,Philadelphia,PA,19121,85.5,40
39.986406,-75.163027,2124,N 18th St,Philadelphia,PA,19121,87.7,40
39.986976,-75.16241,2143,N 18th St,Philadelphia,PA,19121,83.5,40
39.986931,-75.162421,2141,N 18th St,Philadelphia,PA,19121,83.7,40
39.986682,-75.162203,1739,French St,Philadelphia,PA,19121,85.9,20
39.986356,-75.163038,2122,N 18th St,Philadelphia,PA,19121,87.6,40
39.987004,-75.163213,1810-18,W Susquehanna Ave,Philadelphia,PA,19121,87.1,30
39.987206,-75.162164,2202,N Bouvier St,Philadelphia,PA,19132,83.4,30
39.987163,-75.162173,2200,N Bouvier St,Philadelphia,PA,19132,82.9,30
39.986676,-75.162154,1737,French St,Philadelphia,PA,19121,86,20
39.98683,-75.163251,2139-41,N Gratz St,Philadelphia,PA,19121,89.1,20
39.986396,-75.163346,2125,N Gratz St,Philadelphia,PA,19121,91.6,40
39.986663,-75.162474,2129,N 18th St,Philadelphia,PA,19121,85.1,40
39.987226,-75.161409,2209,N Colorado St,Philadelphia,PA,19132,83.4,20
39.987149,-75.161425,2205,N Colorado St,Philadelphia,PA,19132,83.4,20
39.987333,-75.161157,2214,N 17th St,Philadelphia,PA,19132,83.3,30
39.987249,-75.161175,2210,N 17th St,Philadelphia,PA,19132,83.1,40
39.987362,-75.161849,2213,N Bouvier St,Philadelphia,PA,19132,84.5,20
39.9874,-75.161841,2215,N Bouvier St,Philadelphia,PA,19132,84.5,20
39.987187,-75.161417,2207,N Colorado St,Philadelphia,PA,19132,83.3,20
39.987166,-75.161194,2206,N 17th St,Philadelphia,PA,19132,82.9,40
39.987124,-75.161203,2204,N 17th St,Philadelphia,PA,19132,82.7,40
39.987207,-75.161184,2208,N 17th St,Philadelphia,PA,19132,83,30
39.987291,-75.161166,2212,N 17th St,Philadelphia,PA,19132,83.5,30
39.987324,-75.161857,2211,N Bouvier St,Philadelphia,PA,19132,84.1,20
39.987247,-75.161875,2207,N Bouvier St,Philadelphia,PA,19132,83.9,20
39.987147,-75.161707,2202,N Colorado St,Philadelphia,PA,19132,83,20
39.987185,-75.161699,2204,N Colorado St,Philadelphia,PA,19132,83.2,20
39.987341,-75.161383,2215,N Colorado St,Philadelphia,PA,19132,83.5,20
39.987379,-75.161375,2217,N Colorado St,Philadelphia,PA,19132,83.9,20
39.987303,-75.161392,2213,N Colorado St,Philadelphia,PA,19132,83.6,20
39.987264,-75.1614,2211,N Colorado St,Philadelphia,PA,19132,83.6,20
39.987515,-75.161815,2221,N Bouvier St,Philadelphia,PA,19132,84.9,20
39.987438,-75.161832,2217,N Bouvier St,Philadelphia,PA,19132,84.5,20
39.987477,-75.161824,2219,N Bouvier St,Philadelphia,PA,19132,85,20
39.987592,-75.1618,2225,N Bouvier St,Philadelphia,PA,19132,84.7,20
39.987553,-75.161808,2223,N Bouvier St,Philadelphia,PA,19132,85.1,20
39.980995,-75.166612,1720,N Uber St,Philadelphia,PA,19121,111.3,20
39.975648,-75.153341,1515,Guilford Pl,Philadelphia,PA,19122,74.2,20
40.012293,-75.197783,4402,Driftwood Dr,Philadelphia,PA,19129,111.5,30
39.987226,-75.154418,2249,N Park Ave,Philadelphia,PA,19132,79.1,40
40.014212,-75.185636,3422,Henry Ave,Philadelphia,PA,19129,209.6,20
40.014174,-75.185601,3420,Henry Ave,Philadelphia,PA,19129,210,20
39.976018,-75.149649,826,W Oxford St,Philadelphia,PA,19122,59,30
40.014583,-75.18596,3302,Ainslie St,Philadelphia,PA,19129,200.3,30
39.974871,-75.16269,1319,N Smedley St,Philadelphia,PA,19121,93.7,30
39.984483,-75.151741,2111,N Marvine St,Philadelphia,PA,19122,73.3,20
40.013838,-75.185211,3402,Henry Ave,Philadelphia,PA,19129,211.8,20
39.982446,-75.16622,1858,N Uber St,Philadelphia,PA,19121,98.8,20
40.013923,-75.185304,3406,Henry Ave,Philadelphia,PA,19129,211.5,20
40.013738,-75.185454,3313,Bowman St,Philadelphia,PA,19129,205.8,20
40.017374,-75.187198,3228,Midvale Ave,Philadelphia,PA,19129,216.1,10
39.975858,-75.164808,1409,N 18th St,Philadelphia,PA,19121,100.6,40
39.983503,-75.166349,1923,N 20th St,Philadelphia,PA,19121,99,40
39.983599,-75.166329,1927,N 20th St,Philadelphia,PA,19121,99.7,20
39.986707,-75.154527,2225,N Park Ave,Philadelphia,PA,19132,81.2,40
39.98662,-75.154546,2221,N Park Ave,Philadelphia,PA,19132,82.2,20
39.986576,-75.154557,2219,N Park Ave,Philadelphia,PA,19132,82.2,30
39.987182,-75.154426,2247,N Park Ave,Philadelphia,PA,19132,79,40
40.013601,-75.185633,3321,Bowman St,Philadelphia,PA,19129,200.7,30
40.009177,-75.190125,3307,Krail St,Philadelphia,PA,19129,100.3,30
39.97505,-75.153469,1443,Guilford Pl,Philadelphia,PA,19122,70.4,30
39.98079,-75.163513,1728-30,W Montgomery Ave,Philadelphia,PA,19121,103.1,30
39.97544,-75.149714,1533,N 9th St,Philadelphia,PA,19122,57.1,20
39.975476,-75.149695,1535,N 9th St,Philadelphia,PA,19122,57.3,30
39.975514,-75.149687,1537,N 9th St,Philadelphia,PA,19122,57.6,30
39.975625,-75.149662,1543,N 9th St,Philadelphia,PA,19122,57.8,30
40.014138,-75.18606,3431,Osmond St,Philadelphia,PA,19129,199.6,30
40.014556,-75.186002,3304,Ainslie St,Philadelphia,PA,19129,200.2,30
39.974424,-75.149566,800-26,Jefferson St,Philadelphia,PA,19122,53.8,20
39.97411,-75.149701,1422-30,N 8th St,Philadelphia,PA,19122,53.4,30
39.975485,-75.164943,1729,Master St,Philadelphia,PA,19121,98.9,40
39.986967,-75.154473,2237,N Park Ave,Philadelphia,PA,19132,80.5,30
39.987052,-75.154454,2241,N Park Ave,Philadelphia,PA,19132,80,30
39.986924,-75.154482,2235,N Park Ave,Philadelphia,PA,19132,80.7,30
39.97437,-75.156424,1233,Master St,Philadelphia,PA,19122,72.8,30
39.986743,-75.148605,938,W Dauphin St,Philadelphia,PA,19133,91,30
39.98588,-75.148646,2220,N Delhi St,Philadelphia,PA,19133,80.8,20
39.979917,-75.16389,1705,N 18th St,Philadelphia,PA,19121,103.1,40
40.013965,-75.185351,3408,Henry Ave,Philadelphia,PA,19129,212.1,30
39.98372,-75.163132,1945,N 18th St,Philadelphia,PA,19121,93.5,40
39.98376,-75.163123,1947,N 18th St,Philadelphia,PA,19121,93,40
40.01059,-75.188181,3318,Conrad St,Philadelphia,PA,19129,126,40
39.986285,-75.154483,1313,W Susquehanna Ave,Philadelphia,PA,19122,80.4,40
39.983198,-75.162093,1926,N 17th St,Philadelphia,PA,19121,100.6,40
40.011279,-75.190011,3534,Sunnyside Ave,Philadelphia,PA,19129,118.9,30
40.013985,-75.185431,3410,Henry Ave,Philadelphia,PA,19129,212,30
40.00661,-75.187524,3546,Scotts Ln,Philadelphia,PA,19129,52.4,30
40.015088,-75.189132,3344,W Penn St,Philadelphia,PA,19129,195.4,10
39.987096,-75.148332,931,W Dauphin St,Philadelphia,PA,19133,90,30
39.975052,-75.164872,1728,Master St,Philadelphia,PA,19121,99.3,40
40.004677,-75.189051,3704,Ridge Ave,Philadelphia,PA,19132,84.1,10
39.986976,-75.154126,2212-60,N 13th St,Philadelphia,PA,19133,74.2,40
39.986664,-75.154537,2223,N Park Ave,Philadelphia,PA,19132,81.4,40
39.986534,-75.154565,2217,N Park Ave,Philadelphia,PA,19132,81.9,40
39.987139,-75.154436,2245,N Park Ave,Philadelphia,PA,19132,79.7,30
40.014031,-75.185471,3412,Henry Ave,Philadelphia,PA,19129,211.7,30
39.9838,-75.163115,1949,N 18th St,Philadelphia,PA,19121,92.9,40
40.013897,-75.18579,3417,Osmond St,Philadelphia,PA,19129,199.8,30
40.012586,-75.198504,4429,Driftwood Dr,Philadelphia,PA,19129,110,30
39.985921,-75.148637,2222,N Delhi St,Philadelphia,PA,19133,81.2,20
40.017319,-75.189287,3300,W Coulter St,Philadelphia,PA,19129,209.4,20
40.013936,-75.185831,3419,Osmond St,Philadelphia,PA,19129,201.1,30
39.983595,-75.162829,1721,Arlington St,Philadelphia,PA,19121,95.8,40
40.01117,-75.187984,3339,Conrad St,Philadelphia,PA,19129,135.8,30
40.014072,-75.185984,3427,Osmond St,Philadelphia,PA,19129,199.9,30
39.987173,-75.166074,2138,N 20th St,Philadelphia,PA,19121,106,40
40.014105,-75.186022,3429,Osmond St,Philadelphia,PA,19129,199.3,30
39.982518,-75.164819,1820,W Berks St,Philadelphia,PA,19121,95.5,30
39.984342,-75.161087,1625,Page St,Philadelphia,PA,19121,98.9,20
39.980139,-75.163114,1723,N Bouvier St,Philadelphia,PA,19121,102.8,30
39.985259,-75.153983,2119,N 13th St,Philadelphia,PA,19122,82.7,20
40.014345,-75.189725,3419,W Queen Ln,Philadelphia,PA,19129,190.4,30
40.014382,-75.189671,3417,W Queen Ln,Philadelphia,PA,19129,190.8,30
39.9861,-75.165378,1921,Diamond St,Philadelphia,PA,19121,99.8,40
40.009755,-75.189487,3540,Indian Queen Ln,Philadelphia,PA,19129,117.2,30
39.9836,-75.163158,1939,N 18th St,Philadelphia,PA,19121,94.1,40
39.976212,-75.165561,1409,N Gratz St,Philadelphia,PA,19121,105.8,30
39.981195,-75.166101,1727,N Uber St,Philadelphia,PA,19121,111,10
39.975529,-75.162315,1400-30,N 16th St,Philadelphia,PA,19121,102.4,20
39.986866,-75.166393,2125,N Woodstock St,Philadelphia,PA,19121,106.2,40
40.017529,-75.186972,3220,Midvale Ave,Philadelphia,PA,19129,217.7,30
40.009914,-75.191454,3579,Indian Queen Ln,Philadelphia,PA,19129,91.8,30
40.009869,-75.19162,3583,Indian Queen Ln,Philadelphia,PA,19129,88.6,40
39.986837,-75.1545,2231,N Park Ave,Philadelphia,PA,19132,81.1,30
40.009777,-75.191942,3593,Indian Queen Ln,Philadelphia,PA,19129,82.7,30
40.010268,-75.190093,3545,Indian Queen Ln,Philadelphia,PA,19129,109,30
40.009749,-75.192187,3599,Indian Queen Ln,Philadelphia,PA,19129,75.9,40
40.01365,-75.19266,3507,Midvale Ave,Philadelphia,PA,19129,126.7,20
40.009828,-75.191786,3587,Indian Queen Ln,Philadelphia,PA,19129,83.2,40
40.010166,-75.190482,3555,Indian Queen Ln,Philadelphia,PA,19129,104.6,30
40.01015,-75.190536,3557,Indian Queen Ln,Philadelphia,PA,19129,102.9,30
39.986986,-75.153254,2244,N Camac St,Philadelphia,PA,19133,71.6,30
39.986874,-75.151267,1117,W Nevada St,Philadelphia,PA,19133,73.9,20
40.010145,-75.192873,3658,Midvale Ave,Philadelphia,PA,19129,53.9,30
40.010135,-75.190606,3559,Indian Queen Ln,Philadelphia,PA,19129,102.9,30
39.987038,-75.165298,2138,N Uber St,Philadelphia,PA,19121,102.2,40
39.983182,-75.151847,2000,N 11th St,Philadelphia,PA,19122,70.6,20
39.986574,-75.167394,2116,N Lambert St,Philadelphia,PA,19121,106.3,20
39.977168,-75.1558,1235,W Oxford St,Philadelphia,PA,19122,90.6,30
39.97705,-75.154911,1211,W Oxford St,Philadelphia,PA,19122,88.4,30
39.975329,-75.155992,1226,Jefferson St,Philadelphia,PA,19122,79.3,30
39.977041,-75.154839,1209,W Oxford St,Philadelphia,PA,19122,88.1,30
39.987222,-75.153202,2254,N Camac St,Philadelphia,PA,19133,71.1,20
39.986696,-75.167367,2122,N Lambert St,Philadelphia,PA,19121,107.4,20
40.016839,-75.187432,3231-33,W Penn St,Philadelphia,PA,19129,218.9,30
39.976505,-75.150843,935,W Oxford St,Philadelphia,PA,19122,68.9,20
40.009864,-75.194363,3675,Eveline St,Philadelphia,PA,19129,59.2,30
40.012988,-75.195655,3646,Merrick Rd,Philadelphia,PA,19129,139.7,20
40.013014,-75.195621,3644,Merrick Rd,Philadelphia,PA,19129,139.6,20
40.009403,-75.191618,3604,Indian Queen Ln,Philadelphia,PA,19129,90.8,20
40.009393,-75.191501,3600,Indian Queen Ln,Philadelphia,PA,19129,92.3,30
40.009399,-75.19156,3602,Indian Queen Ln,Philadelphia,PA,19129,91.6,30
39.975758,-75.164058,1411,N Bouvier St,Philadelphia,PA,19121,101.8,30
39.986655,-75.167376,2120,N Lambert St,Philadelphia,PA,19121,107.3,20
39.986737,-75.167358,2124,N Lambert St,Philadelphia,PA,19121,107.2,20
39.987429,-75.167206,2158,N Lambert St,Philadelphia,PA,19121,109.9,20
40.01008,-75.192549,3322,Arnold St,Philadelphia,PA,19129,58.6,20
40.010077,-75.192494,3320,Arnold St,Philadelphia,PA,19129,59.7,30
39.980797,-75.15621,1801-35,N Broad St,Philadelphia,PA,19122,88.6,60
39.977227,-75.167687,1501-9,N 20th St,Philadelphia,PA,19121,110.7,50
39.98676,-75.16455,2138,N 19th St,Philadelphia,PA,19121,97.8,40
40.009269,-75.191123,3621,Haywood St,Philadelphia,PA,19129,105.8,30
40.009282,-75.191071,3619,Haywood St,Philadelphia,PA,19129,105.6,30
39.98679,-75.16641,2121,N Woodstock St,Philadelphia,PA,19121,105.7,30
40.010071,-75.192441,3318,Arnold St,Philadelphia,PA,19129,61.2,30
40.010068,-75.192388,3316,Arnold St,Philadelphia,PA,19129,61.4,30
39.986818,-75.167341,2128,N Lambert St,Philadelphia,PA,19121,107.6,20
40.009691,-75.194482,3685,Eveline St,Philadelphia,PA,19129,51,30
40.009504,-75.194951,4239,Ridge Ave,Philadelphia,PA,19129,34.3,40
39.986489,-75.16706,2113,N Lambert St,Philadelphia,PA,19121,105.9,20
39.986531,-75.167051,2115,N Lambert St,Philadelphia,PA,19121,106.2,20
40.013174,-75.196131,3611,Merrick Rd,Philadelphia,PA,19129,134,30
40.015198,-75.182739,3300,Fox St,Philadelphia,PA,19129,233.2,20
39.985369,-75.163183,1802,Diamond St,Philadelphia,PA,19121,91.7,30
40.013787,-75.198677,3636,Weightman St,Philadelphia,PA,19129,136,30
40.010089,-75.190776,3563,Indian Queen Ln,Philadelphia,PA,19129,96.1,40
40.010092,-75.192713,3328,Arnold St,Philadelphia,PA,19129,56.5,30
40.010089,-75.192658,3326,Arnold St,Philadelphia,PA,19129,57.8,20
39.978462,-75.163178,1608,N 17th St,Philadelphia,PA,19121,101.9,40
39.987433,-75.167972,2152,N 21st St,Philadelphia,PA,19121,111.1,30
39.986701,-75.165682,2125,N 20th St,Philadelphia,PA,19121,104.2,40
39.987179,-75.165252,2144,N Uber St,Philadelphia,PA,19121,102.3,20
39.987301,-75.165229,2148,N Uber St,Philadelphia,PA,19121,101.9,40
39.985689,-75.157835,2131,N 15th St,Philadelphia,PA,19121,96.1,40
40.013033,-75.196265,3617,Merrick Rd,Philadelphia,PA,19129,133.7,30
40.006072,-75.181656,3201,W Hilton St,Philadelphia,PA,19129,113.5,30
40.006079,-75.18171,3203,W Hilton St,Philadelphia,PA,19129,113.7,30
40.006086,-75.181763,3205,W Hilton St,Philadelphia,PA,19129,113.6,30
40.010401,-75.187132,3309,Conrad St,Philadelphia,PA,19129,137.7,40
39.979644,-75.164502,1801,Cecil B Moore Ave,Philadelphia,PA,19121,102.1,30
39.979644,-75.164502,1801,Cecil B Moore Ave,Philadelphia,PA,19121,102.1,30
39.979644,-75.164502,1801,Cecil B Moore Ave,Philadelphia,PA,19121,102.4,30
39.987383,-75.167481,2151,N 21st St,Philadelphia,PA,19121,110.8,40
40.017039,-75.187695,3242,Midvale Ave,Philadelphia,PA,19129,209.9,10
40.015444,-75.189276,3337,W Penn St,Philadelphia,PA,19129,196.4,10
39.987306,-75.167233,2152,N Lambert St,Philadelphia,PA,19121,109.5,20
39.977869,-75.165667,1536,N Gratz St,Philadelphia,PA,19121,109.4,40
39.983325,-75.162977,1730,Arlington St,Philadelphia,PA,19121,95.4,40
39.987022,-75.167295,2138,N Lambert St,Philadelphia,PA,19121,108.1,20
39.987109,-75.157507,2221,N 15th St,Philadelphia,PA,19132,85.6,30
39.987247,-75.157477,2229,N 15th St,Philadelphia,PA,19132,85.3,30
40.006274,-75.184522,3215,N 34th St,Philadelphia,PA,19129,101.8,30
39.986941,-75.167313,2134,N Lambert St,Philadelphia,PA,19121,108.1,20
40.015679,-75.188067,3311,W Queen Ln,Philadelphia,PA,19129,212,10
39.987424,-75.167472,2153,N 21st St,Philadelphia,PA,19121,110.9,40
39.974968,-75.15522,1428,N 12th St,Philadelphia,PA,19122,74.6,20
39.97502,-75.155209,1430,N 12th St,Philadelphia,PA,19122,74.9,20
40.013283,-75.196381,3614,Gypsy Ln,Philadelphia,PA,19129,135.3,30
39.978753,-75.168384,2021,W Oxford St,Philadelphia,PA,19121,114.6,30
39.979644,-75.164502,1801,Cecil B Moore Ave,Philadelphia,PA,19121,102.5,30
39.980524,-75.164687,1729,N Gratz St,Philadelphia,PA,19121,105.9,30
39.980566,-75.164677,1731,N Gratz St,Philadelphia,PA,19121,105.9,40
39.980483,-75.164695,1727,N Gratz St,Philadelphia,PA,19121,105.7,40
39.980928,-75.164192,1804,W Montgomery Ave,Philadelphia,PA,19121,107.2,30
40.01077,-75.199259,4436,Ridge Ave,Philadelphia,PA,19129,43.3,30
39.982914,-75.165372,1905,W Berks St,Philadelphia,PA,19121,93.2,30
40.010084,-75.192603,3324,Arnold St,Philadelphia,PA,19129,58.4,30
39.977437,-75.160816,1508,W Oxford St,Philadelphia,PA,19121,96.3,40
40.015252,-75.192474,3436,Warden Dr,Philadelphia,PA,19129,158.1,20
40.006361,-75.184503,3219,N 34th St,Philadelphia,PA,19129,103.3,30
40.006317,-75.184513,3217,N 34th St,Philadelphia,PA,19129,102.2,30
39.986982,-75.167304,2136,N Lambert St,Philadelphia,PA,19121,108.4,20
39.986532,-75.167403,2114,N Lambert St,Philadelphia,PA,19121,106.4,20
39.984524,-75.158962,1521,Fontain St,Philadelphia,PA,19121,104,20
39.983142,-75.16296,1737,Monument St,Philadelphia,PA,19121,98.1,30
39.974452,-75.14877,728,Jefferson St,Philadelphia,PA,19122,48.8,30
39.975339,-75.156063,1228,Jefferson St,Philadelphia,PA,19122,79.4,30
39.984511,-75.158856,1517,Fontain St,Philadelphia,PA,19121,104.2,30
39.984538,-75.158559,2036,N 15th St,Philadelphia,PA,19121,104.4,40
39.978044,-75.157364,1603-45,N Broad St,Philadelphia,PA,19122,88.9,120
39.97435,-75.152221,1400-58,N 10th St,Philadelphia,PA,19122,59.4,20
39.984538,-75.153943,1221,Diamond St,Philadelphia,PA,19122,85.3,20
39.984548,-75.154013,1223,Diamond St,Philadelphia,PA,19122,85.7,20
39.975072,-75.155199,1432,N 12th St,Philadelphia,PA,19122,75.4,20
40.015832,-75.189301,3328,Midvale Ave,Philadelphia,PA,19129,184.1,20
39.981069,-75.161324,1815,Willington St,Philadelphia,PA,19121,99,30
40.006175,-75.182897,3215,N 33rd St,Philadelphia,PA,19129,110,30
40.014038,-75.185946,3425,Osmond St,Philadelphia,PA,19129,199.5,30
39.984609,-75.148555,2136,N Percy St,Philadelphia,PA,19122,71.5,20
39.98457,-75.148564,2134,N Percy St,Philadelphia,PA,19122,71.1,20
40.014005,-75.185907,3423,Osmond St,Philadelphia,PA,19129,199.7,30
39.984531,-75.148572,2132,N Percy St,Philadelphia,PA,19122,70.9,20
39.983623,-75.162035,1936-38,N 17th St,Philadelphia,PA,19121,97.2,40
39.986089,-75.148603,2230,N Delhi St,Philadelphia,PA,19133,82.6,20
39.986133,-75.148594,2232,N Delhi St,Philadelphia,PA,19133,82.8,20
39.986178,-75.148584,2234,N Delhi St,Philadelphia,PA,19133,83.3,20
39.986222,-75.148575,2236,N Delhi St,Philadelphia,PA,19133,84.1,20
40.014015,-75.192769,3534,Calumet St,Philadelphia,PA,19129,165.1,30
39.983818,-75.162944,1724,W Norris St,Philadelphia,PA,19121,93.1,40
39.978469,-75.168492,2022,W Oxford St,Philadelphia,PA,19121,115.2,30
40.012198,-75.193957,3624,Calumet St,Philadelphia,PA,19129,131,20
40.01259,-75.193699,3606,Calumet St,Philadelphia,PA,19129,138.6,20
40.012509,-75.19375,3610,Calumet St,Philadelphia,PA,19129,137.8,20
40.009933,-75.194315,3671,Eveline St,Philadelphia,PA,19129,62.6,30
39.97928,-75.165339,1644,N Gratz St,Philadelphia,PA,19121,104.4,30
39.979239,-75.165348,1642,N Gratz St,Philadelphia,PA,19121,104.9,30
39.9847,-75.148074,2144,N 9th St,Philadelphia,PA,19122,73.7,20
40.010741,-75.188972,3255,Cresson St,Philadelphia,PA,19129,117.2,30
39.981257,-75.161266,1825,Willington St,Philadelphia,PA,19121,99.6,20
40.014324,-75.186342,3320,Ainslie St,Philadelphia,PA,19129,194.7,30
40.013854,-75.185751,3415,Osmond St,Philadelphia,PA,19129,200,30
40.014468,-75.186129,3310,Ainslie St,Philadelphia,PA,19129,197.1,30
39.985423,-75.167642,2026,N Lambert St,Philadelphia,PA,19121,106.7,30
39.973372,-75.155545,1318,N 12th St,Philadelphia,PA,19122,65,30
40.014208,-75.192641,3526,Calumet St,Philadelphia,PA,19129,160.6,30
39.986356,-75.148546,2242,N Delhi St,Philadelphia,PA,19133,85,20
39.986401,-75.148536,2244,N Delhi St,Philadelphia,PA,19133,85.4,20
39.986447,-75.148527,2246,N Delhi St,Philadelphia,PA,19133,85.5,30
39.98276,-75.147926,2026,N Darien St,Philadelphia,PA,19122,57.9,20
39.97807,-75.162782,1631,W Oxford St,Philadelphia,PA,19121,103.1,40
39.985448,-75.163807,1818,Diamond St,Philadelphia,PA,19121,93.9,30
39.985461,-75.163864,1820,Diamond St,Philadelphia,PA,19121,94.1,30
39.986375,-75.154656,1319-21,W Susquehanna Ave,Philadelphia,PA,19133,82,40
39.987095,-75.154446,2243,N Park Ave,Philadelphia,PA,19132,80,30
40.015713,-75.189431,3332,Midvale Ave,Philadelphia,PA,19129,180.3,20
39.980918,-75.161355,1807,Willington St,Philadelphia,PA,19121,98.4,30
39.985212,-75.164154,1829,Fontain St,Philadelphia,PA,19121,93,20
39.985466,-75.164111,1828,Diamond St,Philadelphia,PA,19121,95.1,40
39.985521,-75.16432,1834,Diamond St,Philadelphia,PA,19121,96,40
40.011647,-75.189469,3510,Sunnyside Ave,Philadelphia,PA,19129,127.4,40
40.011618,-75.189512,3512,Sunnyside Ave,Philadelphia,PA,19129,127.1,40
39.978907,-75.166285,1616,N 19th St,Philadelphia,PA,19121,109.8,30
39.983919,-75.163091,1955,N 18th St,Philadelphia,PA,19121,92.1,40
39.983615,-75.162988,1727,Arlington St,Philadelphia,PA,19121,95.4,40
40.012794,-75.194053,3607,Calumet St,Philadelphia,PA,19129,140.3,20
39.979186,-75.163938,1722-42,Cecil B Moore Ave,Philadelphia,PA,19121,101.7,40
39.981032,-75.161333,1813,Willington St,Philadelphia,PA,19121,99,30
39.985198,-75.164044,1825,Fontain St,Philadelphia,PA,19121,92.5,30
39.976323,-75.154305,1540,Queens Pl,Philadelphia,PA,19122,82.8,30
40.013432,-75.193167,3564,Calumet St,Philadelphia,PA,19129,156.9,20
40.012397,-75.192934,3617,Midvale Ave,Philadelphia,PA,19129,97.1,20
39.985187,-75.163897,2040,N Gratz St,Philadelphia,PA,19121,92.4,40
39.985206,-75.164101,1827,Fontain St,Philadelphia,PA,19121,92.9,20
39.985165,-75.148888,928,W Susquehanna Ave,Philadelphia,PA,19122,75.8,30
39.986567,-75.153358,2224,N Camac St,Philadelphia,PA,19133,72.5,30
39.980412,-75.160292,1514,W Montgomery Ave,Philadelphia,PA,19121,93.9,30
39.974815,-75.149295,1502,N 8th St,Philadelphia,PA,19122,51.9,30
39.984785,-75.160946,1635,Fontain St,Philadelphia,PA,19121,98.1,20
40.011187,-75.187667,3467,Indian Queen Ln,Philadelphia,PA,19129,147.4,10
39.984349,-75.161144,1627,Page St,Philadelphia,PA,19121,98.7,20
39.974444,-75.162783,1307,N Smedley St,Philadelphia,PA,19121,91.7,30
40.010396,-75.19152,3346,Wiehle St,Philadelphia,PA,19129,95.9,30
40.006178,-75.182502,3233,W Hilton St,Philadelphia,PA,19129,111.6,30
39.983607,-75.165594,1927,N Uber St,Philadelphia,PA,19121,96.5,20
39.977757,-75.160424,1505,W Oxford St,Philadelphia,PA,19121,95.1,40
39.985515,-75.155885,2125-29,N Broad St,Philadelphia,PA,19122,95,30
40.016547,-75.19149,3411,W Coulter St,Philadelphia,PA,19129,202.4,20
40.011939,-75.179063,3102-18,W Abbottsford Ave,Philadelphia,PA,19129,185.4,30
39.987626,-75.16434,2208,N 19th St,Philadelphia,PA,19132,96.3,40
39.978139,-75.166443,1532,N 19th St,Philadelphia,PA,19121,112,20
39.985325,-75.153968,2121,N 13th St,Philadelphia,PA,19122,82.5,20
39.977747,-75.160361,1503,W Oxford St,Philadelphia,PA,19121,95,40
39.987667,-75.164312,2210,N 19th St,Philadelphia,PA,19132,96.4,40
40.013703,-75.190645,3457,W Queen Ln,Philadelphia,PA,19129,176.6,30
39.983647,-75.165587,1929,N Uber St,Philadelphia,PA,19121,95.8,20
39.977046,-75.1587,1528,N Broad St,Philadelphia,PA,19121,89.7,20
39.980522,-75.162848,1700,W Montgomery Ave,Philadelphia,PA,19121,102.7,50
39.977783,-75.160078,1600-10,N 15th St,Philadelphia,PA,19121,93.4,40
39.975496,-75.15422,1125,Jefferson St,Philadelphia,PA,19122,75.2,20
39.973512,-75.156039,1322,Betsy Ross Pl,Philadelphia,PA,19122,67.1,30
40.013657,-75.196654,3601,Gypsy Ln,Philadelphia,PA,19129,142.4,30
40.013721,-75.196938,3602,W Earlham St,Philadelphia,PA,19129,142.1,30
40.013647,-75.196991,3606,W Earlham St,Philadelphia,PA,19129,139.9,30
39.977068,-75.161977,1524,N 16th St,Philadelphia,PA,19121,105.3,40
40.012042,-75.189014,3425-27,Conrad St,Philadelphia,PA,19129,142.6,20
39.978702,-75.167963,2005,W Oxford St,Philadelphia,PA,19121,112.7,40
40.012696,-75.187907,3418,Sunnyside Ave,Philadelphia,PA,19129,161.2,30
40.012667,-75.18795,3420,Sunnyside Ave,Philadelphia,PA,19129,160.3,30
39.984731,-75.152348,2117,N 12th St,Philadelphia,PA,19122,74.1,20
40.014869,-75.190271,3422,Midvale Ave,Philadelphia,PA,19129,166.5,20
40.012634,-75.187988,3422,Sunnyside Ave,Philadelphia,PA,19129,159.5,30
39.986164,-75.156802,1410,W Susquehanna Ave,Philadelphia,PA,19121,92.3,40
39.980404,-75.160242,1512,W Montgomery Ave,Philadelphia,PA,19121,93.8,30
39.975846,-75.167915,1919,Master St,Philadelphia,PA,19121,105.7,30
39.98076,-75.148095,1905,N Darien St,Philadelphia,PA,19122,45.3,20
40.017248,-75.191556,3404,Warden Dr,Philadelphia,PA,19129,191.1,30
40.008437,-75.193658,4156-78,Ridge Ave,Philadelphia,PA,19129,32.4,20
39.97506,-75.167373,1915,Ingersoll St,Philadelphia,PA,19121,106.7,20
39.980908,-75.148502,1913,N 9th St,Philadelphia,PA,19122,45.1,30
39.985886,-75.157513,2144,N Carlisle St,Philadelphia,PA,19121,94.3,40
39.978132,-75.163277,1707,W Oxford St,Philadelphia,PA,19121,104.5,40
39.985686,-75.16218,1725,Diamond St,Philadelphia,PA,19121,91.6,40
39.985677,-75.16212,1723,Diamond St,Philadelphia,PA,19121,92.2,40
39.983568,-75.165603,1925,N Uber St,Philadelphia,PA,19121,96.3,30
39.978762,-75.163093,1620,N 17th St,Philadelphia,PA,19121,100.2,30
39.982819,-75.148093,2029,N 9th St,Philadelphia,PA,19122,57.3,30
39.983528,-75.16561,1923,N Uber St,Philadelphia,PA,19121,96.6,20
39.978909,-75.163062,1626,N 17th St,Philadelphia,PA,19121,99.8,30
39.974624,-75.156127,1413,N 13th St,Philadelphia,PA,19122,75.5,30
40.013333,-75.19688,3617,Gypsy Ln,Philadelphia,PA,19129,134,30
39.974679,-75.156116,1415,N 13th St,Philadelphia,PA,19122,75.6,30
39.974733,-75.156105,1417,N 13th St,Philadelphia,PA,19122,75.6,30
40.013286,-75.196933,3619,Gypsy Ln,Philadelphia,PA,19129,133.3,30
39.974225,-75.151428,1401-57,N 10th St,Philadelphia,PA,19122,57.6,20
39.975098,-75.1542,1122,Jefferson St,Philadelphia,PA,19122,74.6,30
39.985926,-75.157505,2146,N Carlisle St,Philadelphia,PA,19121,94.1,40
39.980825,-75.166649,1716,N Uber St,Philadelphia,PA,19121,110.7,20
39.978156,-75.16346,1713,W Oxford St,Philadelphia,PA,19121,105,40
39.986573,-75.167042,2117,N Lambert St,Philadelphia,PA,19121,106.4,20
39.974048,-75.153917,1111,Master St,Philadelphia,PA,19122,62.8,20
39.975087,-75.156142,1428,Dondill Pl,Philadelphia,PA,19122,76.6,20
39.978267,-75.160039,1612-26,N 15th St,Philadelphia,PA,19121,95,30
39.983865,-75.156055,2001-47,N Broad St,Philadelphia,PA,19122,94.4,120
39.976795,-75.15098,1619,N 10th St,Philadelphia,PA,19122,73.4,20
40.008173,-75.193162,4150,Ridge Ave,Philadelphia,PA,19129,26.1,40
40.008196,-75.193204,4152,Ridge Ave,Philadelphia,PA,19129,31.6,30
40.00627,-75.186745,3509,W Allegheny Ave,Philadelphia,PA,19132,69.8,30
39.986978,-75.166729,2126,N Woodstock St,Philadelphia,PA,19121,106.7,20
39.986743,-75.167004,2125,N Lambert St,Philadelphia,PA,19121,106.9,20
39.975558,-75.163254,1417,N 17th St,Philadelphia,PA,19121,100.6,40
39.98432,-75.157418,2043,N Carlisle St,Philadelphia,PA,19121,103,40
40.013245,-75.194641,3609,Fisk Ave,Philadelphia,PA,19129,146.9,20
40.013219,-75.194678,3611,Fisk Ave,Philadelphia,PA,19129,145.7,20
39.987148,-75.166692,2134,N Woodstock St,Philadelphia,PA,19121,107.5,20
39.987192,-75.166682,2136,N Woodstock St,Philadelphia,PA,19121,107.6,20
39.980752,-75.161028,1800,N 16th St,Philadelphia,PA,19121,95.1,30
39.981509,-75.152613,1835-99,N 12th St,Philadelphia,PA,19122,79.1,10
39.974278,-75.163629,1313,N 17th St,Philadelphia,PA,19121,93.6,20
39.974315,-75.163621,1315,N 17th St,Philadelphia,PA,19121,94.1,20
39.974352,-75.163613,1317,N 17th St,Philadelphia,PA,19121,94.4,20
40.014877,-75.188966,3337,W Queen Ln,Philadelphia,PA,19129,203.1,30
40.006405,-75.184493,3221,N 34th St,Philadelphia,PA,19129,104.2,30
40.013563,-75.194861,3602,Merrick Rd,Philadelphia,PA,19129,167.6,20
39.984031,-75.162059,1703,W Norris St,Philadelphia,PA,19121,95.1,40
39.980087,-75.152918,1801-33,N 12th St,Philadelphia,PA,19122,68.8,30
39.975038,-75.156153,1426,Dondill Pl,Philadelphia,PA,19122,76.4,20
40.013535,-75.194905,3604,Merrick Rd,Philadelphia,PA,19129,167.6,20
40.014957,-75.188854,3335,W Queen Ln,Philadelphia,PA,19129,201.3,10
39.986859,-75.151157,1113,W Nevada St,Philadelphia,PA,19133,74,20
39.986315,-75.167053,2019-29,Diamond St,Philadelphia,PA,19121,104,60
39.981371,-75.161241,1831,Willington St,Philadelphia,PA,19121,100.1,20
39.982757,-75.162156,1914,N 17th St,Philadelphia,PA,19121,104.2,30
39.983794,-75.157562,2019,N Carlisle St,Philadelphia,PA,19121,104.6,20
39.983929,-75.157532,2025,N Carlisle St,Philadelphia,PA,19121,104.2,20
40.014895,-75.186785,3314,Tilden St,Philadelphia,PA,19129,197.3,30
40.009478,-75.191368,3596,Indian Queen Ln,Philadelphia,PA,19129,98.2,40
39.987534,-75.164358,2204-6,N 19th St,Philadelphia,PA,19132,96.1,40
39.981181,-75.161283,1821,Willington St,Philadelphia,PA,19121,99.4,40
39.987458,-75.164469,1907,W Susquehanna Ave,Philadelphia,PA,19121,97.2,10
39.986504,-75.160912,2131,N 17th St,Philadelphia,PA,19121,85.1,40
39.97642,-75.163597,1442,N 17th St,Philadelphia,PA,19121,108.5,10
40.014443,-75.190503,3439,W Penn St,Philadelphia,PA,19129,169.9,30
40.014414,-75.190545,3441,W Penn St,Philadelphia,PA,19129,169.3,30
39.985208,-75.149204,940,W Susquehanna Ave,Philadelphia,PA,19122,74.4,30
39.9852,-75.149149,938,W Susquehanna Ave,Philadelphia,PA,19122,74.8,30
39.985193,-75.149097,936,W Susquehanna Ave,Philadelphia,PA,19122,74.8,20
39.983099,-75.16566,1916,Monument St,Philadelphia,PA,19121,95.5,20
39.982908,-75.16532,1903,W Berks St,Philadelphia,PA,19121,93.3,30
39.980233,-75.165987,1706,N 19th St,Philadelphia,PA,19121,107.1,20
40.01591,-75.187518,3301,W Queen Ln,Philadelphia,PA,19129,212.8,30
39.974935,-75.15555,1425,Dondill Pl,Philadelphia,PA,19122,75,30
39.985172,-75.148941,930,W Susquehanna Ave,Philadelphia,PA,19122,75.6,20
39.978471,-75.165852,1835-45,W Oxford St,Philadelphia,PA,19121,110,30
40.013916,-75.199123,3639,Weightman St,Philadelphia,PA,19129,137.4,30
39.974884,-75.154171,1434,Guilford Pl,Philadelphia,PA,19122,71.1,30
39.974835,-75.154182,1432,Guilford Pl,Philadelphia,PA,19122,70.8,30
40.010559,-75.186324,3424,Crawford St,Philadelphia,PA,19129,149.6,20
40.017318,-75.190219,3901,Vaux St,Philadelphia,PA,19129,211.2,30
39.984889,-75.163772,2036,N Cleveland St,Philadelphia,PA,19121,91.6,20
39.97436,-75.156351,1231,Master St,Philadelphia,PA,19122,72.6,30
40.009523,-75.195002,4241,Ridge Ave,Philadelphia,PA,19129,34.6,30
39.986957,-75.167574,2131,N 21st St,Philadelphia,PA,19121,109.5,40
39.987218,-75.167516,2143,N 21st St,Philadelphia,PA,19121,110.5,40
39.980998,-75.148304,1914,N Darien St,Philadelphia,PA,19122,46.8,20
40.010457,-75.191358,3342,Wiehle St,Philadelphia,PA,19129,95.9,40
40.010397,-75.191456,3344,Wiehle St,Philadelphia,PA,19129,95.5,30
39.973868,-75.155581,1210,Master St,Philadelphia,PA,19122,67.6,30
39.97385,-75.155437,1206,Master St,Philadelphia,PA,19122,66.7,30
40.013173,-75.195387,3634,Merrick Rd,Philadelphia,PA,19129,145.6,20
40.012768,-75.195433,3643,Fisk Ave,Philadelphia,PA,19129,127.6,20
40.010064,-75.192334,3314,Arnold St,Philadelphia,PA,19129,62.2,30
40.010059,-75.19228,3312,Arnold St,Philadelphia,PA,19129,63.2,20
40.010053,-75.192227,3310,Arnold St,Philadelphia,PA,19129,63.3,20
39.986859,-75.167332,2130,N Lambert St,Philadelphia,PA,19121,108,20
40.009595,-75.19095,3586,Indian Queen Ln,Philadelphia,PA,19129,101.3,40
39.987062,-75.167286,2140,N Lambert St,Philadelphia,PA,19121,108.5,20
40.010045,-75.19213,3308,Arnold St,Philadelphia,PA,19129,64.1,20
39.979014,-75.157275,1715,N Broad St,Philadelphia,PA,19122,85.2,20
39.984724,-75.148248,2145,N Percy St,Philadelphia,PA,19122,73.1,20
39.986614,-75.167032,2119,N Lambert St,Philadelphia,PA,19121,106.3,30
40.013835,-75.198626,3634,Weightman St,Philadelphia,PA,19129,136.2,30
40.012794,-75.19539,3641,Fisk Ave,Philadelphia,PA,19129,128.1,20
40.015773,-75.189365,3330,Midvale Ave,Philadelphia,PA,19129,188.2,10
39.985543,-75.161085,1639,Diamond St,Philadelphia,PA,19121,95.5,40
40.012849,-75.195314,3637,Fisk Ave,Philadelphia,PA,19129,130.2,20
39.978848,-75.167838,1610,N 20th St,Philadelphia,PA,19121,112.6,30
40.012831,-75.196041,3467,Cresson St,Philadelphia,PA,19129,128.4,10
39.986934,-75.16674,2124,N Woodstock St,Philadelphia,PA,19121,106.7,20
40.00681,-75.186149,3443,W Westmoreland St,Philadelphia,PA,19129,76.4,30
40.006799,-75.186097,3441,W Westmoreland St,Philadelphia,PA,19129,77.8,30
39.984442,-75.157392,2049,N Carlisle St,Philadelphia,PA,19121,102.6,20
39.984483,-75.157383,2051,N Carlisle St,Philadelphia,PA,19121,102.1,20
40.015996,-75.192597,3426,Warden Dr,Philadelphia,PA,19129,164.3,30
39.974342,-75.156221,1227,Master St,Philadelphia,PA,19122,72.1,30
40.014776,-75.189503,3404,W Penn St,Philadelphia,PA,19129,191.7,20
39.974351,-75.156284,1229,Master St,Philadelphia,PA,19122,72.5,30
39.987158,-75.153217,2252,N Camac St,Philadelphia,PA,19133,71.1,30
40.005565,-75.186022,3430,W Allegheny Ave,Philadelphia,PA,19132,77.7,20
39.973955,-75.156233,1224,Master St,Philadelphia,PA,19122,70.9,30
39.973963,-75.156296,1226,Master St,Philadelphia,PA,19122,71.1,30
39.97708,-75.152405,1615,N 11th St,Philadelphia,PA,19122,82.1,20
40.013393,-75.198293,3552,Cresson St,Philadelphia,PA,19129,135,20
40.013372,-75.198218,3550,Cresson St,Philadelphia,PA,19129,134.9,20
40.0136,-75.186421,3423,Barclay St,Philadelphia,PA,19129,189.9,30
39.97855,-75.162288,1618,Willington St,Philadelphia,PA,19121,98.5,30
40.014463,-75.189552,3413,W Queen Ln,Philadelphia,PA,19129,191.4,30
39.982623,-75.162184,1908,N 17th St,Philadelphia,PA,19121,105.3,20
39.974737,-75.154203,1428,Guilford Pl,Philadelphia,PA,19122,70.4,30
39.978494,-75.161534,1624,N 16th St,Philadelphia,PA,19121,96.1,40
39.978957,-75.161766,1614,Cecil B Moore Ave,Philadelphia,PA,19121,94.7,30
39.983371,-75.157414,2000,N Broad St,Philadelphia,PA,19121,105.6,40
39.97468,-75.154216,1426,Guilford Pl,Philadelphia,PA,19122,70,30
39.983081,-75.162119,1922,N 17th St,Philadelphia,PA,19121,101.6,30
39.974501,-75.156155,1409,N 13th St,Philadelphia,PA,19122,75.2,30
39.974569,-75.156141,1411,N 13th St,Philadelphia,PA,19122,75.2,30
39.983139,-75.162106,1924,N 17th St,Philadelphia,PA,19121,101.2,40
39.974989,-75.156164,1424,Dondill Pl,Philadelphia,PA,19122,76.2,20
39.974555,-75.155818,1412,Betsy Ross Pl,Philadelphia,PA,19122,72.8,30
39.974501,-75.15583,1410,Betsy Ross Pl,Philadelphia,PA,19122,72.6,30
39.986997,-75.150329,1042,W Dauphin St,Philadelphia,PA,19133,79.9,30
39.974665,-75.155794,1416,Betsy Ross Pl,Philadelphia,PA,19122,72.1,30
39.983544,-75.168278,1913-15,N 21st St,Philadelphia,PA,19121,101.9,30
39.974428,-75.163598,1321,N 17th St,Philadelphia,PA,19121,94.5,20
39.986653,-75.164892,2127,N Uber St,Philadelphia,PA,19121,101.9,40
39.974446,-75.155843,1408,Betsy Ross Pl,Philadelphia,PA,19122,71.4,30
40.014046,-75.187559,3357,Ainslie St,Philadelphia,PA,19129,179.7,30
39.980724,-75.165026,1734,N Gratz St,Philadelphia,PA,19121,106.9,40
39.978165,-75.163524,1715,W Oxford St,Philadelphia,PA,19121,105.4,30
39.979833,-75.163569,1704,N Bouvier St,Philadelphia,PA,19121,101,30
40.01212,-75.19671,3710,Merrick Rd,Philadelphia,PA,19129,91.2,30
39.980684,-75.165035,1732,N Gratz St,Philadelphia,PA,19121,106.6,30
39.976948,-75.165422,1505,N Gratz St,Philadelphia,PA,19121,105.8,40
39.977032,-75.152415,1613,N 11th St,Philadelphia,PA,19122,82,20
39.984764,-75.160787,1629,Fontain St,Philadelphia,PA,19121,98.9,20
39.984757,-75.160734,1627,Fontain St,Philadelphia,PA,19121,98.9,20
39.9752,-75.155008,1202,Jefferson St,Philadelphia,PA,19122,76.4,30
39.97676,-75.167237,1910,Jefferson St,Philadelphia,PA,19121,109.8,20
40.013134,-75.186318,3343,Bowman St,Philadelphia,PA,19129,188.9,30
39.985722,-75.157548,2136,N Carlisle St,Philadelphia,PA,19121,95.7,40
39.982567,-75.162512,1717,W Berks St,Philadelphia,PA,19121,103.6,30
39.979185,-75.163244,1712,Cecil B Moore Ave,Philadelphia,PA,19121,99.2,40
39.97815,-75.163397,1711,W Oxford St,Philadelphia,PA,19121,105,30
39.986049,-75.157475,2152,N Carlisle St,Philadelphia,PA,19121,93.4,40
39.977595,-75.165728,1526,N Gratz St,Philadelphia,PA,19121,108.4,40
39.986008,-75.157484,2150,N Carlisle St,Philadelphia,PA,19121,93.4,40
39.985093,-75.154019,2113,N 13th St,Philadelphia,PA,19122,84.2,20
39.978621,-75.163465,1617,N Bouvier St,Philadelphia,PA,19121,103,30
40.013701,-75.189498,3439,Tilden St,Philadelphia,PA,19129,187.8,30
39.979177,-75.163181,1710,Cecil B Moore Ave,Philadelphia,PA,19121,97.7,40
39.979133,-75.162866,1700,Cecil B Moore Ave,Philadelphia,PA,19121,98,30
39.980752,-75.165874,1718,N 19th St,Philadelphia,PA,19121,108.6,20
39.980735,-75.165353,1721,N 19th St,Philadelphia,PA,19121,108.9,20
39.978447,-75.16231,1614,Willington St,Philadelphia,PA,19121,99.3,30
39.9785,-75.162299,1616,Willington St,Philadelphia,PA,19121,99.2,30
40.015707,-75.187803,3307,W Queen Ln,Philadelphia,PA,19129,213.7,10
39.984761,-75.152572,2111,N 12th St,Philadelphia,PA,19122,72.9,20
39.984741,-75.15242,2115,N 12th St,Philadelphia,PA,19122,74.2,20
39.985675,-75.167008,2042,N Woodstock St,Philadelphia,PA,19121,104,30
39.985634,-75.167017,2040,N Woodstock St,Philadelphia,PA,19121,104.2,30
39.984098,-75.157113,2022,N Broad St,Philadelphia,PA,19121,101.5,40
39.979194,-75.163306,1714,Cecil B Moore Ave,Philadelphia,PA,19121,99.6,30
40.009995,-75.19345,3711,Midvale Ave,Philadelphia,PA,19129,50.3,40
40.012928,-75.191022,3501,New Queen St,Philadelphia,PA,19129,160.6,20
40.012946,-75.190783,3600,Conrad St,Philadelphia,PA,19129,165.4,30
39.97886,-75.163073,1624,N 17th St,Philadelphia,PA,19121,99.4,40
39.981077,-75.165278,1727,N 19th St,Philadelphia,PA,19121,109.4,10
39.981028,-75.165079,1832,W Montgomery Ave,Philadelphia,PA,19121,109.2,40
39.98102,-75.165025,1830,W Montgomery Ave,Philadelphia,PA,19121,108.9,30
40.012315,-75.19191,3533,New Queen St,Philadelphia,PA,19129,134.7,30
39.982268,-75.16813,1802,N Woodstock St,Philadelphia,PA,19121,103.3,20
39.97455,-75.161513,1516-34,Master St,Philadelphia,PA,19121,88.7,40
39.979149,-75.162992,1704,Cecil B Moore Ave,Philadelphia,PA,19121,98.6,30
39.978138,-75.163338,1709,W Oxford St,Philadelphia,PA,19121,105,30
39.97967,-75.160729,1711,N 16th St,Philadelphia,PA,19121,95.3,30
39.984752,-75.166597,2008,N 20th St,Philadelphia,PA,19121,97.3,40
40.001811,-75.11787,,,Philadelphia,PA,19101,90,20
39.98645,-75.155702,2205,N Broad St,Philadelphia,PA,19132,91.6,40
39.97755,-75.151811,1018,Cecil B Moore Ave,Philadelphia,PA,19122,80.7,30
39.977559,-75.151877,1020,Cecil B Moore Ave,Philadelphia,PA,19122,80.4,30
39.985732,-75.162539,1737,Diamond St,Philadelphia,PA,19121,91.2,40
39.98574,-75.162598,1739,Diamond St,Philadelphia,PA,19121,90.6,40
39.983726,-75.15991,1541,W Norris St,Philadelphia,PA,19121,106,10
39.98609,-75.157467,2154,N Carlisle St,Philadelphia,PA,19121,92.8,30
40.013077,-75.191869,3500,Midvale Ave,Philadelphia,PA,19129,138.7,60
39.978576,-75.163474,1615,N Bouvier St,Philadelphia,PA,19121,103.1,30
40.009769,-75.194772,3720,Stanton St,Philadelphia,PA,19129,55.6,30
40.013218,-75.191057,3614,Conrad St,Philadelphia,PA,19129,174.2,20
39.978415,-75.163512,1607,N Bouvier St,Philadelphia,PA,19121,104.2,20
40.011108,-75.195266,3685,Calumet St,Philadelphia,PA,19129,99.4,20
39.986431,-75.151306,1113,W Colona St,Philadelphia,PA,19133,71.1,20
40.010999,-75.195342,3691,Calumet St,Philadelphia,PA,19129,95.4,30
40.011072,-75.195293,3687,Calumet St,Philadelphia,PA,19129,97.9,20
39.981308,-75.164794,1811,W Montgomery Ave,Philadelphia,PA,19121,106.9,30
39.985643,-75.157565,2132,N Carlisle St,Philadelphia,PA,19121,96.4,40
39.984791,-75.160999,1637,Fontain St,Philadelphia,PA,19121,98,30
40.008016,-75.188795,4055,Ridge Ave,Philadelphia,PA,19129,45.4,10
39.985479,-75.157601,2124,N Carlisle St,Philadelphia,PA,19121,97.8,40
39.985118,-75.157582,1423,Diamond St,Philadelphia,PA,19121,99.9,50
39.985133,-75.157707,1427,Diamond St,Philadelphia,PA,19121,101.3,40
40.012379,-75.191818,3529,New Queen St,Philadelphia,PA,19129,137.6,20
39.986909,-75.159218,2207,N 16th St,Philadelphia,PA,19132,81.5,40
39.986952,-75.159209,2209,N 16th St,Philadelphia,PA,19132,81.7,40
39.986994,-75.1592,2211,N 16th St,Philadelphia,PA,19132,81.4,40
39.987036,-75.159191,2213,N 16th St,Philadelphia,PA,19132,81.3,40
39.986363,-75.167433,2033,Diamond St,Philadelphia,PA,19121,106,40
39.986697,-75.167631,2119,N 21st St,Philadelphia,PA,19121,108.4,40
39.977048,-75.148257,1643,N 8th St,Philadelphia,PA,19122,59.9,30
39.985051,-75.167895,2001-25,N 21st St,Philadelphia,PA,19121,104.7,10
39.982831,-75.162944,1734,Monument St,Philadelphia,PA,19121,99.1,30
39.982783,-75.162573,1720,Monument St,Philadelphia,PA,19121,101.4,40
39.987178,-75.166908,2145,N Lambert St,Philadelphia,PA,19121,108.5,20
39.973514,-75.159518,1300-8,N Broad St,Philadelphia,PA,19121,75.3,20
39.984317,-75.159538,1540,Fontain St,Philadelphia,PA,19121,103.5,20
39.985587,-75.167607,2034,N Lambert St,Philadelphia,PA,19121,106.9,30
39.987225,-75.167251,2148,N Lambert St,Philadelphia,PA,19121,108.9,20
39.986615,-75.167385,2118,N Lambert St,Philadelphia,PA,19121,106.9,20
39.981211,-75.162014,1815,N 17th St,Philadelphia,PA,19121,101.5,50
39.978398,-75.162322,1612,Willington St,Philadelphia,PA,19121,99.7,30
39.9752,-75.152103,1017,Jefferson St,Philadelphia,PA,19122,66.7,20
39.975192,-75.152039,1015,Jefferson St,Philadelphia,PA,19122,66.1,20
39.975311,-75.151798,1512,N 10th St,Philadelphia,PA,19122,67.5,20
39.976512,-75.164665,1433,N 18th St,Philadelphia,PA,19121,102.7,40
40.011553,-75.18695,3443,Indian Queen Ln,Philadelphia,PA,19129,164.5,30
40.013207,-75.189658,3466,Tilden St,Philadelphia,PA,19129,184.5,20
40.017598,-75.194363,3460,W School House Ln,Philadelphia,PA,19129,223.5,30
39.985379,-75.151547,2141,N Marvine St,Philadelphia,PA,19122,68.6,20
40.016241,-75.192497,3422,Warden Dr,Philadelphia,PA,19129,167.6,20
40.016935,-75.187858,3244,Midvale Ave,Philadelphia,PA,19129,201.8,20
39.977974,-75.1652,1543,N Gratz St,Philadelphia,PA,19121,109.8,40
40.013328,-75.193897,4315,Dobson St,Philadelphia,PA,19129,150,30
39.982777,-75.16252,1718,Monument St,Philadelphia,PA,19121,101.6,30
40.014156,-75.188047,3535,Vaux St,Philadelphia,PA,19129,188.9,10
40.013835,-75.187679,3515,Vaux St,Philadelphia,PA,19129,183.5,10
39.980399,-75.160192,1510,W Montgomery Ave,Philadelphia,PA,19121,93.5,30
39.980392,-75.16014,1508,W Montgomery Ave,Philadelphia,PA,19121,93.1,30
39.981729,-75.161567,1836,Willington St,Philadelphia,PA,19121,101.8,30
40.015734,-75.19259,3430,Warden Dr,Philadelphia,PA,19129,160.8,20
40.017121,-75.191648,3406,Warden Dr,Philadelphia,PA,19129,190.7,20
39.977479,-75.161118,1533-41,N 16th St,Philadelphia,PA,19121,97.4,50
39.980673,-75.167611,1705-53,N Woodstock St,Philadelphia,PA,19121,110.7,20
39.978817,-75.165785,1619,N 19th St,Philadelphia,PA,19121,109.3,30
40.013443,-75.189318,3448,Tilden St,Philadelphia,PA,19129,191.3,20
40.016071,-75.19087,3414,W Coulter St,Philadelphia,PA,19129,203.3,20
39.98747,-75.167198,2160,N Lambert St,Philadelphia,PA,19121,109.7,20
39.987347,-75.167225,2154,N Lambert St,Philadelphia,PA,19121,109.6,20
39.978296,-75.163213,1602,N 17th St,Philadelphia,PA,19121,102.6,40
39.984358,-75.163613,2011,N Cleveland St,Philadelphia,PA,19121,92.6,20
39.98432,-75.163622,2009,N Cleveland St,Philadelphia,PA,19121,92.8,20
39.98427,-75.163428,2006,N 18th St,Philadelphia,PA,19121,91,40
39.978461,-75.168434,2020,W Oxford St,Philadelphia,PA,19121,114.9,30
39.978451,-75.168378,2018,W Oxford St,Philadelphia,PA,19121,114.9,30
39.984311,-75.16342,2008,N 18th St,Philadelphia,PA,19121,91.1,40
39.984352,-75.163411,2010,N 18th St,Philadelphia,PA,19121,90.7,30
40.016301,-75.191825,3415-17,W Coulter St,Philadelphia,PA,19129,195,20
40.017,-75.191746,3408,Warden Dr,Philadelphia,PA,19129,188.9,30
40.006421,-75.182846,3227,N 33rd St,Philadelphia,PA,19129,110.2,30
39.984355,-75.164411,2004,N Gratz St,Philadelphia,PA,19121,94,20
39.981957,-75.162395,1842,N 17th St,Philadelphia,PA,19121,104.8,40
40.017619,-75.19228,3405,Warden Dr,Philadelphia,PA,19129,192.9,30
39.981114,-75.161715,1806,Willington St,Philadelphia,PA,19121,100.1,30
40.010418,-75.191254,3340,Wiehle St,Philadelphia,PA,19129,96.3,40
39.975952,-75.152007,1541,N Jefferson Ln,Philadelphia,PA,19122,71.5,20
39.975903,-75.152018,1539,N Jefferson Ln,Philadelphia,PA,19122,71.9,20
39.975821,-75.152036,1537,N Jefferson Ln,Philadelphia,PA,19122,71.3,20
39.976022,-75.164773,1415,N 18th St,Philadelphia,PA,19121,101.1,40
39.975967,-75.164785,1413,N 18th St,Philadelphia,PA,19121,100.8,40
40.016912,-75.190685,3900,Vaux St,Philadelphia,PA,19129,211.3,30
40.015595,-75.189561,3336,Midvale Ave,Philadelphia,PA,19129,179.1,20
40.015799,-75.187673,3303,W Queen Ln,Philadelphia,PA,19129,215.6,10
39.983936,-75.148243,2104,N 9th St,Philadelphia,PA,19122,66.3,30
39.983973,-75.148234,2106,N 9th St,Philadelphia,PA,19122,66.6,30
39.984897,-75.149671,2132-38,N 10th St,Philadelphia,PA,19122,71.3,10
39.985226,-75.149712,2150,N 10th St,Philadelphia,PA,19122,73,20
39.981866,-75.162415,1838,N 17th St,Philadelphia,PA,19121,104.4,40
39.984603,-75.163358,2022,N 18th St,Philadelphia,PA,19121,90.5,40
40.017792,-75.19226,3401-3,Warden Dr,Philadelphia,PA,19129,195.7,20
40.013418,-75.189352,3450,Tilden St,Philadelphia,PA,19129,190.8,20
40.013795,-75.190519,3451,W Queen Ln,Philadelphia,PA,19129,180.6,30
39.981729,-75.162445,1832,N 17th St,Philadelphia,PA,19121,103.8,40
39.982279,-75.162654,1849,N Bouvier St,Philadelphia,PA,19121,102.8,30
39.982236,-75.162663,1847,N Bouvier St,Philadelphia,PA,19121,103.1,30
39.982597,-75.162737,1725,W Berks St,Philadelphia,PA,19121,102.4,30
39.986761,-75.163741,2136-38,N Gratz St,Philadelphia,PA,19121,91.2,20
39.978092,-75.16756,1527,N 20th St,Philadelphia,PA,19121,114.6,20
39.986257,-75.154311,1307,W Susquehanna Ave,Philadelphia,PA,19122,78.9,40
39.978792,-75.156292,1301-43,Cecil B Moore Ave,Philadelphia,PA,19122,83.5,50
40.011616,-75.191929,3311,Cresson St,Philadelphia,PA,19129,114,20
39.976446,-75.15268,1559,N 11th St,Philadelphia,PA,19122,77.2,20
39.981423,-75.165655,1903,W Montgomery Ave,Philadelphia,PA,19121,108.8,30
40.013338,-75.189468,3456,Tilden St,Philadelphia,PA,19129,189.1,20
39.98143,-75.16571,1905,W Montgomery Ave,Philadelphia,PA,19121,109.6,30
39.981438,-75.165768,1907,W Montgomery Ave,Philadelphia,PA,19121,109.5,30
40.015026,-75.195428,3480,W School House Ln,Philadelphia,PA,19129,191,10
39.982023,-75.16271,1837,N Bouvier St,Philadelphia,PA,19121,103.8,30
39.982184,-75.162345,1852,N 17th St,Philadelphia,PA,19121,105.9,40
39.981217,-75.162556,1810,N 17th St,Philadelphia,PA,19121,101.3,40
39.975059,-75.165115,1734,Master St,Philadelphia,PA,19121,98.2,40
39.975361,-75.151787,1514,N 10th St,Philadelphia,PA,19122,67.2,20
39.97541,-75.151776,1516,N 10th St,Philadelphia,PA,19122,67.6,20
40.006736,-75.185531,3417,W Westmoreland St,Philadelphia,PA,19129,89.8,30
40.006742,-75.185606,3421,W Westmoreland St,Philadelphia,PA,19129,89.2,30
40.010562,-75.196061,3734,Palisades Dr,Philadelphia,PA,19129,66.9,30
40.017307,-75.191145,3906-8,Vaux St,Philadelphia,PA,19129,203.2,20
39.9866,-75.166451,2111,N Woodstock St,Philadelphia,PA,19121,105,30
39.975278,-75.155602,1220,Jefferson St,Philadelphia,PA,19122,76.8,30
40.015194,-75.188522,3327,W Queen Ln,Philadelphia,PA,19129,207.3,30
39.981312,-75.162537,1814,N 17th St,Philadelphia,PA,19121,102,30
39.981938,-75.162727,1833,N Bouvier St,Philadelphia,PA,19121,104.1,10
39.982604,-75.162793,1727,W Berks St,Philadelphia,PA,19121,101.9,30
40.011339,-75.186384,3408,Indian Queen Ln,Philadelphia,PA,19129,168,20
39.978286,-75.160707,1618,N Sydenham St,Philadelphia,PA,19121,98.2,30
39.984063,-75.158902,1519,Page St,Philadelphia,PA,19121,107.1,20
39.984076,-75.159008,1523,Page St,Philadelphia,PA,19121,106.7,20
40.012959,-75.18658,3355,Bowman St,Philadelphia,PA,19129,184,30
39.976456,-75.164678,1431,N 18th St,Philadelphia,PA,19121,102.8,40
39.976455,-75.164433,1710,Jefferson St,Philadelphia,PA,19121,104.2,30
39.975495,-75.165019,1731,Master St,Philadelphia,PA,19121,98.4,40
39.985517,-75.157872,2123,N 15th St,Philadelphia,PA,19121,97.9,40
40.015862,-75.19215,3423,W Coulter St,Philadelphia,PA,19129,179.5,20
40.015766,-75.188859,3325,W Penn St,Philadelphia,PA,19129,203.1,10
40.01658,-75.188365,3300-4,Midvale Ave,Philadelphia,PA,19129,206.8,10
40.016291,-75.188183,3305,W Penn St,Philadelphia,PA,19129,210.2,10
39.98182,-75.162423,1836,N 17th St,Philadelphia,PA,19121,104.3,40
39.977175,-75.166629,1506,N 19th St,Philadelphia,PA,19121,108,40
39.97555,-75.153363,1511,Guilford Pl,Philadelphia,PA,19122,73.3,20
39.975501,-75.153374,1509,Guilford Pl,Philadelphia,PA,19122,73.2,20
39.98215,-75.162682,1843,N Bouvier St,Philadelphia,PA,19121,103.4,30
39.978265,-75.16235,1606,Willington St,Philadelphia,PA,19121,102.1,10
39.982107,-75.162691,1841,N Bouvier St,Philadelphia,PA,19121,103.4,30
39.982278,-75.162325,1856,N 17th St,Philadelphia,PA,19121,105.9,30
39.976296,-75.164397,1414,N Bouvier St,Philadelphia,PA,19121,104.5,30
39.986745,-75.168123,2120,N 21st St,Philadelphia,PA,19121,108.7,40
39.975617,-75.164544,1400,N Bouvier St,Philadelphia,PA,19121,100.3,30
39.986383,-75.16495,2117,N Uber St,Philadelphia,PA,19121,100.9,40
39.981375,-75.167602,1755,N Woodstock St,Philadelphia,PA,19121,107.7,30
39.9823,-75.168466,1802,N Lambert St,Philadelphia,PA,19121,101.7,20
39.984324,-75.159587,1542,Fontain St,Philadelphia,PA,19121,103.3,20
40.014193,-75.187809,3362,Tilden St,Philadelphia,PA,19129,185.4,30
39.973588,-75.155404,1329,Betsy Ross Pl,Philadelphia,PA,19122,65.7,30
39.981964,-75.161835,1847,N 17th St,Philadelphia,PA,19121,105,40
39.976224,-75.154326,1536,Queens Pl,Philadelphia,PA,19122,82.5,30
40.014966,-75.187437,3331,Tilden St,Philadelphia,PA,19129,204.7,10
39.984071,-75.161043,1624,Page St,Philadelphia,PA,19121,99.8,20
40.01284,-75.193553,3588,Calumet St,Philadelphia,PA,19129,143.6,20
40.013115,-75.193378,3578-80,Calumet St,Philadelphia,PA,19129,149.6,20
39.987345,-75.16328,2202,N Cleveland St,Philadelphia,PA,19132,88.4,20
39.984292,-75.151782,2105,N Marvine St,Philadelphia,PA,19122,73.8,20
40.006204,-75.182713,3241,W Hilton St,Philadelphia,PA,19129,110.7,30
39.974444,-75.153717,1420,N 11th St,Philadelphia,PA,19122,65.4,20
39.980239,-75.165133,1712,N Gratz St,Philadelphia,PA,19121,105.1,40
39.980063,-75.165171,1704,N Gratz St,Philadelphia,PA,19121,104.2,30
39.984298,-75.15939,1534,Fontain St,Philadelphia,PA,19121,104.4,20
39.984252,-75.158624,2028,N 15th St,Philadelphia,PA,19121,105.3,40
40.013042,-75.195576,3642,Merrick Rd,Philadelphia,PA,19129,140.4,20
40.006005,-75.184696,3339,W Allegheny Ave,Philadelphia,PA,19132,94.4,30
39.985517,-75.151517,2145,N Marvine St,Philadelphia,PA,19122,68.4,20
39.984409,-75.151598,2110,N 11th St,Philadelphia,PA,19122,72,20
40.006184,-75.182555,3235,W Hilton St,Philadelphia,PA,19129,111.6,30
40.010183,-75.186883,3450,Crawford St,Philadelphia,PA,19129,138.7,20
40.017146,-75.185713,3211,W Queen Ln,Philadelphia,PA,19129,224.7,30
39.976627,-75.166291,1439,N 19th St,Philadelphia,PA,19121,106.4,40
39.98519,-75.166503,2028,N 20th St,Philadelphia,PA,19121,99.1,40
39.985106,-75.16652,2024,N 20th St,Philadelphia,PA,19121,98.5,40
39.981586,-75.161918,1831,N 17th St,Philadelphia,PA,19121,102.9,50
39.981153,-75.161707,1808,Willington St,Philadelphia,PA,19121,100.2,30
39.984648,-75.151705,2117,N Marvine St,Philadelphia,PA,19122,72.3,20
39.985219,-75.164205,1831,Fontain St,Philadelphia,PA,19121,93.5,20
39.984593,-75.151717,2115,N Marvine St,Philadelphia,PA,19122,72.9,20
39.977121,-75.15544,1225,W Oxford St,Philadelphia,PA,19122,89.8,30
39.984712,-75.151691,2119,N Marvine St,Philadelphia,PA,19122,71.7,20
39.985261,-75.151573,2137,N Marvine St,Philadelphia,PA,19122,68.9,20
39.97711,-75.155369,1223,W Oxford St,Philadelphia,PA,19122,89.8,30
40.016484,-75.192353,3418,Warden Dr,Philadelphia,PA,19129,171.9,20
39.976227,-75.153645,1539,Queens Pl,Philadelphia,PA,19122,80.6,30
39.976333,-75.153622,1543,Queens Pl,Philadelphia,PA,19122,80.8,30
39.985363,-75.165351,1923,Fontain St,Philadelphia,PA,19121,97,20
39.976492,-75.153651,1116,W Oxford St,Philadelphia,PA,19122,83.2,30
39.977677,-75.16602,1527,N 19th St,Philadelphia,PA,19121,110.6,20
39.982895,-75.148079,2033,N 9th St,Philadelphia,PA,19122,57.8,30
39.983132,-75.147847,2046,N Darien St,Philadelphia,PA,19122,61.2,20
39.985097,-75.151608,2131,N Marvine St,Philadelphia,PA,19122,70,20
39.976001,-75.151646,1544,N 10th St,Philadelphia,PA,19122,70.6,20
39.975419,-75.15169,1530,N 10th St,Philadelphia,PA,19122,69.1,20
39.976289,-75.151929,1020,W Oxford St,Philadelphia,PA,19122,73.9,20
39.975208,-75.152167,1019,Jefferson St,Philadelphia,PA,19122,67.1,20
40.012979,-75.196471,3626,Gypsy Ln,Philadelphia,PA,19129,131.6,30
40.013762,-75.190561,3453,W Queen Ln,Philadelphia,PA,19129,178.7,30
40.018022,-75.195877,3425,W School House Ln,Philadelphia,PA,19129,213.2,20
40.01751,-75.199134,4122-24,Apalogen Rd,Philadelphia,PA,19129,125.6,30
40.015796,-75.198444,3555,W School House Ln,Philadelphia,PA,19129,169.4,20
39.976547,-75.161291,1507,N 16th St,Philadelphia,PA,19121,105.4,40
39.983064,-75.165377,1906,Monument St,Philadelphia,PA,19121,94.7,20
40.016497,-75.186662,3233,W Queen Ln,Philadelphia,PA,19129,221.9,10
39.97685,-75.149049,1600-22,N 8th St,Philadelphia,PA,19122,60.5,70
39.98498,-75.160441,1616,Diamond St,Philadelphia,PA,19121,97.4,30
40.016667,-75.191342,3409,W Coulter St,Philadelphia,PA,19129,205.1,20
40.015948,-75.189166,3324,Midvale Ave,Philadelphia,PA,19129,188.9,10
39.981099,-75.16288,1715,W Montgomery Ave,Philadelphia,PA,19121,102,40
39.981116,-75.163007,1719,W Montgomery Ave,Philadelphia,PA,19121,102.7,40
39.981264,-75.162546,1812,N 17th St,Philadelphia,PA,19121,101.7,40
39.981597,-75.162803,1817,N Bouvier St,Philadelphia,PA,19121,105.4,30
39.981512,-75.162822,1813,N Bouvier St,Philadelphia,PA,19121,105.3,30
39.987124,-75.15157,1126,W Dauphin St,Philadelphia,PA,19133,75.6,20
39.987139,-75.151686,1130,W Dauphin St,Philadelphia,PA,19133,75.6,20
39.976381,-75.152695,1557,N 11th St,Philadelphia,PA,19122,76.5,20
39.977193,-75.151829,1621,Newport Pl,Philadelphia,PA,19122,79.1,10
39.980792,-75.148339,1902,N Darien St,Philadelphia,PA,19122,45.7,20
39.987408,-75.163446,2205,N Gratz St,Philadelphia,PA,19132,91,20
40.011895,-75.18885,3419,Conrad St,Philadelphia,PA,19129,141.7,30
39.987385,-75.163271,2204,N Cleveland St,Philadelphia,PA,19132,88.5,20
40.01195,-75.188889,3421,Conrad St,Philadelphia,PA,19129,142.2,30
40.011971,-75.188958,3423,Conrad St,Philadelphia,PA,19129,142.1,20
39.987424,-75.163263,2206,N Cleveland St,Philadelphia,PA,19132,89,20
40.012751,-75.187825,3414,Sunnyside Ave,Philadelphia,PA,19129,163.5,30
40.012725,-75.187868,3416,Sunnyside Ave,Philadelphia,PA,19129,162.3,30
39.974496,-75.153706,1422,N 11th St,Philadelphia,PA,19122,65.9,20
39.974544,-75.153695,1424,N 11th St,Philadelphia,PA,19122,66,20
39.980064,-75.16702,1933,Cecil B Moore Ave,Philadelphia,PA,19121,107.3,40
39.986207,-75.160519,1632,French St,Philadelphia,PA,19121,87.8,20
39.9862,-75.160467,1630,French St,Philadelphia,PA,19121,87.7,20
40.012521,-75.188157,3430,Sunnyside Ave,Philadelphia,PA,19129,155.4,30
40.01312,-75.187506,3430,Vaux St,Philadelphia,PA,19129,170.7,30
40.013075,-75.187463,3428,Vaux St,Philadelphia,PA,19129,172.3,30
39.986213,-75.160571,1634,French St,Philadelphia,PA,19121,87.4,30
39.986187,-75.160368,1626,French St,Philadelphia,PA,19121,88.1,20
39.985966,-75.160036,1611,Edgley St,Philadelphia,PA,19121,90.8,20
39.986081,-75.160864,1643,Edgley St,Philadelphia,PA,19121,89.7,20
39.986074,-75.160813,1641,Edgley St,Philadelphia,PA,19121,89.8,20
40.01044,-75.189092,3517,Indian Queen Ln,Philadelphia,PA,19129,117.3,30
39.979143,-75.166582,1918,Nicholas St,Philadelphia,PA,19121,109.5,30
39.979162,-75.16673,1924,Nicholas St,Philadelphia,PA,19121,109.8,30
40.016454,-75.193252,3425,Warden Dr,Philadelphia,PA,19129,173.1,20
39.986067,-75.160762,1639,Edgley St,Philadelphia,PA,19121,89.9,20
40.012612,-75.186968,3402,Vaux St,Philadelphia,PA,19129,180.1,30
39.986061,-75.160711,1637,Edgley St,Philadelphia,PA,19121,90,20
39.98351,-75.162278,1701,Arlington St,Philadelphia,PA,19121,98.2,40
39.982969,-75.165796,1921,W Berks St,Philadelphia,PA,19121,94,30
39.986054,-75.160659,1635,Edgley St,Philadelphia,PA,19121,90.5,20
40.010436,-75.189249,3523,Indian Queen Ln,Philadelphia,PA,19129,116.9,30
40.010441,-75.189199,3521,Indian Queen Ln,Philadelphia,PA,19129,117.2,30
40.013581,-75.197581,3621,W Earlham St,Philadelphia,PA,19129,134.9,30
39.975871,-75.155026,1514,N 12th St,Philadelphia,PA,19122,81.1,30
40.010797,-75.188928,3516,Bowman St,Philadelphia,PA,19129,123.1,40
39.978581,-75.164202,1613,N 18th St,Philadelphia,PA,19121,105.8,30
39.977153,-75.165064,1510,N 18th St,Philadelphia,PA,19121,105.5,30
39.978624,-75.164193,1615,N 18th St,Philadelphia,PA,19121,105.8,30
39.984774,-75.163983,2027,N Gratz St,Philadelphia,PA,19121,93.5,20
39.984731,-75.163991,2025,N Gratz St,Philadelphia,PA,19121,93.1,20
40.013904,-75.192896,3538,Calumet St,Philadelphia,PA,19129,163.5,30
40.013851,-75.192891,3540,Calumet St,Philadelphia,PA,19129,162.6,30
39.97628,-75.155445,1524,Saratoga Pl,Philadelphia,PA,19122,84.3,30
39.984692,-75.153231,2111,N Camac St,Philadelphia,PA,19122,77.1,20
40.012125,-75.18883,3458,Sunnyside Ave,Philadelphia,PA,19129,144.3,20
40.010202,-75.19035,3551,Indian Queen Ln,Philadelphia,PA,19129,105.5,30
40.007349,-75.190238,4034,Ridge Ave,Philadelphia,PA,19129,31.4,40
39.984084,-75.161876,2006,N 17th St,Philadelphia,PA,19121,96.5,40
40.016869,-75.191099,3405,W Coulter St,Philadelphia,PA,19129,201.6,30
39.986136,-75.159999,1612,French St,Philadelphia,PA,19121,87.4,20
39.986247,-75.160828,1644,French St,Philadelphia,PA,19121,86.3,30
39.98624,-75.160777,1642,French St,Philadelphia,PA,19121,87.2,20
39.975702,-75.148095,1518,N Franklin St,Philadelphia,PA,19122,48.9,20
39.986226,-75.160675,1638,French St,Philadelphia,PA,19121,87.2,30
39.984777,-75.163322,2030,N 18th St,Philadelphia,PA,19121,89.7,40
39.984243,-75.163638,2005,N Cleveland St,Philadelphia,PA,19121,92.9,20
39.984282,-75.163629,2007,N Cleveland St,Philadelphia,PA,19121,92.9,20
39.98622,-75.160623,1636,French St,Philadelphia,PA,19121,87.9,20
39.975658,-75.152953,1537,N 11th St,Philadelphia,PA,19122,74,20
39.984396,-75.163606,2013,N Cleveland St,Philadelphia,PA,19121,92.6,20
39.974397,-75.164648,1731,Seybert St,Philadelphia,PA,19121,97.5,20
39.980687,-75.16433,1720,N 18th St,Philadelphia,PA,19121,108.6,10
40.013245,-75.186598,3414,Barclay St,Philadelphia,PA,19129,184.5,30
39.982121,-75.164308,1835,N Gratz St,Philadelphia,PA,19121,99.7,20
39.981311,-75.164571,1807,W Montgomery Ave,Philadelphia,PA,19121,106.6,30
39.981405,-75.162515,1818,N 17th St,Philadelphia,PA,19121,102.4,40
39.98164,-75.162793,1819,N Bouvier St,Philadelphia,PA,19121,105.4,40
39.981426,-75.162841,1809,N Bouvier St,Philadelphia,PA,19121,104.8,30
40.01767,-75.186765,3214,Midvale Ave,Philadelphia,PA,19129,219.1,30
39.984646,-75.163349,2024,N 18th St,Philadelphia,PA,19121,90,40
39.977101,-75.155298,1221,W Oxford St,Philadelphia,PA,19122,89.5,30
40.017028,-75.190816,3902,Vaux St,Philadelphia,PA,19129,204.8,10
40.015494,-75.18859,3328,W Penn St,Philadelphia,PA,19129,207.4,10
39.981107,-75.162942,1717,W Montgomery Ave,Philadelphia,PA,19121,102.4,40
39.981359,-75.162526,1816,N 17th St,Philadelphia,PA,19121,102.5,40
39.980056,-75.160318,1736,N Sydenham St,Philadelphia,PA,19121,94.4,30
39.981067,-75.162633,1707,W Montgomery Ave,Philadelphia,PA,19121,101.2,40
40.013712,-75.194378,4337,Dobson St,Philadelphia,PA,19129,164.9,30
39.986848,-75.15107,1109,W Nevada St,Philadelphia,PA,19133,74.5,20
40.013488,-75.196764,3609,Gypsy Ln,Philadelphia,PA,19129,137.7,30
39.985754,-75.162717,1743,Diamond St,Philadelphia,PA,19121,90.8,40
39.983494,-75.165299,1930,N 19th St,Philadelphia,PA,19121,94,30
39.983535,-75.165289,1932,N 19th St,Philadelphia,PA,19121,94.1,30
39.983794,-75.165556,1937,N Uber St,Philadelphia,PA,19121,95,30
39.983757,-75.165563,1935,N Uber St,Philadelphia,PA,19121,95.5,20
39.983721,-75.16557,1933,N Uber St,Philadelphia,PA,19121,95.7,20
40.01068,-75.188685,3515,Indian Queen Ln,Philadelphia,PA,19129,117.8,40
40.012277,-75.194388,3633,Calumet St,Philadelphia,PA,19129,130.1,20
40.013528,-75.196735,3607,Gypsy Ln,Philadelphia,PA,19129,139.5,30
39.983685,-75.165578,1931,N Uber St,Philadelphia,PA,19121,95.3,40
39.975346,-75.167838,1999,Ridge Ave,Philadelphia,PA,19121,104.8,60
39.975021,-75.167069,1903,Ingersoll St,Philadelphia,PA,19121,105,20
40.009725,-75.194458,3683,Eveline St,Philadelphia,PA,19129,53,30
39.98181,-75.162757,1827,N Bouvier St,Philadelphia,PA,19121,104.3,30
39.981853,-75.162746,1829,N Bouvier St,Philadelphia,PA,19121,104.2,40
39.981296,-75.162869,1803,N Bouvier St,Philadelphia,PA,19121,104.4,30
39.975034,-75.167174,1907,Ingersoll St,Philadelphia,PA,19121,105.6,20
39.975088,-75.16757,1923,Ingersoll St,Philadelphia,PA,19121,107.6,20
39.975314,-75.167042,1900-6,Master St,Philadelphia,PA,19121,103.1,40
39.975658,-75.152953,1537,N 11th St,Philadelphia,PA,19122,73.5,20
40.009544,-75.195056,4243,Ridge Ave,Philadelphia,PA,19129,35.5,30
40.00937,-75.19471,4225-33,Ridge Ave,Philadelphia,PA,19129,33,30
39.985763,-75.16278,1745,Diamond St,Philadelphia,PA,19121,89.4,50
39.981498,-75.162494,1822,N 17th St,Philadelphia,PA,19121,102.4,40
40.017751,-75.199843,4126-28,Apalogen Rd,Philadelphia,PA,19129,153.2,20
40.009445,-75.194657,3699,Eveline St,Philadelphia,PA,19129,38.1,40
39.981075,-75.162695,1709,W Montgomery Ave,Philadelphia,PA,19121,101.3,40
40.010055,-75.194576,3704,Stanton St,Philadelphia,PA,19129,69.9,30
39.98306,-75.147863,2042,N Darien St,Philadelphia,PA,19122,60.4,20
39.986797,-75.148786,2259-65,N 10th St,Philadelphia,PA,19133,90.1,40
39.985004,-75.153673,2110,N Camac St,Philadelphia,PA,19122,79.9,20
39.976311,-75.151577,1556,N 10th St,Philadelphia,PA,19122,73.7,20
40.010392,-75.192814,3650,Midvale Ave,Philadelphia,PA,19129,57.7,30
40.010351,-75.192821,3652,Midvale Ave,Philadelphia,PA,19129,57.6,30
39.98456,-75.163368,2020,N 18th St,Philadelphia,PA,19121,90.4,40
39.984776,-75.163525,2033,N Cleveland St,Philadelphia,PA,19121,91.7,20
39.984701,-75.16354,2029,N Cleveland St,Philadelphia,PA,19121,91.8,20
39.984664,-75.163548,2027,N Cleveland St,Philadelphia,PA,19121,92,20
39.984515,-75.163376,2018,N 18th St,Philadelphia,PA,19121,90.4,40
39.975973,-75.166416,1407,N 19th St,Philadelphia,PA,19121,104.5,30
39.984165,-75.163451,2000-2,N 18th St,Philadelphia,PA,19121,91.2,40
40.009306,-75.190965,3615,Haywood St,Philadelphia,PA,19129,106.2,30
40.009293,-75.191018,3617,Haywood St,Philadelphia,PA,19129,106.4,30
39.982059,-75.161814,1851,N 17th St,Philadelphia,PA,19121,105.6,40
39.984865,-75.163304,2034,N 18th St,Philadelphia,PA,19121,89.2,40
40.007412,-75.190475,4042,Ridge Ave,Philadelphia,PA,19129,30.9,40
39.975535,-75.151671,1538,N 10th St,Philadelphia,PA,19122,70.5,20
39.975535,-75.151671,1538,N 10th St,Philadelphia,PA,19122,70.7,20
39.98427,-75.164092,2003,N Gratz St,Philadelphia,PA,19121,93.5,20
39.975369,-75.148167,1512,N Franklin St,Philadelphia,PA,19122,48.4,20
39.975251,-75.148192,1510,N Franklin St,Philadelphia,PA,19122,47.8,20
39.984626,-75.163557,2025,N Cleveland St,Philadelphia,PA,19121,92,20
39.978081,-75.165176,1547,N Gratz St,Philadelphia,PA,19121,109.9,40
39.981605,-75.164392,1809,N Gratz St,Philadelphia,PA,19121,103.8,30
39.981166,-75.164164,1800,N 18th St,Philadelphia,PA,19121,105.9,40
39.975025,-75.148241,1506,N Franklin St,Philadelphia,PA,19122,46.9,20
39.98617,-75.160262,1622,French St,Philadelphia,PA,19121,87.7,20
39.986163,-75.16021,1620,French St,Philadelphia,PA,19121,87.6,20
39.986156,-75.160158,1618,French St,Philadelphia,PA,19121,87.6,20
39.986149,-75.160104,1616,French St,Philadelphia,PA,19121,87.7,20
39.986142,-75.16005,1614,French St,Philadelphia,PA,19121,87.5,20
39.975223,-75.166136,1828,Master St,Philadelphia,PA,19121,101.3,30
40.011498,-75.19697,3722,Merrick Rd,Philadelphia,PA,19129,75.5,20
39.980707,-75.166207,1717,N Uber St,Philadelphia,PA,19121,110.1,20
39.975419,-75.15169,1530,N 10th St,Philadelphia,PA,19122,68.1,20
39.975535,-75.151671,1538,N 10th St,Philadelphia,PA,19122,70.5,20
40.009804,-75.19475,3718,Stanton St,Philadelphia,PA,19129,57.2,40
40.009983,-75.194625,3708,Stanton St,Philadelphia,PA,19129,66.8,30
40.012606,-75.188028,3424,Sunnyside Ave,Philadelphia,PA,19129,158.2,30
40.009732,-75.194797,3722,Stanton St,Philadelphia,PA,19129,53.5,30
40.009829,-75.194386,3677,Eveline St,Philadelphia,PA,19129,57.3,30
40.009695,-75.194822,3724,Stanton St,Philadelphia,PA,19129,51.3,40
40.009479,-75.194633,3697,Eveline St,Philadelphia,PA,19129,40.5,20
40.012551,-75.188119,3428,Sunnyside Ave,Philadelphia,PA,19129,156.7,30
40.012799,-75.187211,3414,Vaux St,Philadelphia,PA,19129,177.5,30
40.012681,-75.187044,3406,Vaux St,Philadelphia,PA,19129,179.6,30
40.012713,-75.187081,3408,Vaux St,Philadelphia,PA,19129,179.2,30
39.976249,-75.155775,1523,N 13th St,Philadelphia,PA,19122,84.4,30
40.009909,-75.194675,3712,Stanton St,Philadelphia,PA,19129,63.5,30
40.009965,-75.194289,3669,Eveline St,Philadelphia,PA,19129,64,30
40.009555,-75.194574,3693,Eveline St,Philadelphia,PA,19129,44.4,30
39.981091,-75.162818,1713,W Montgomery Ave,Philadelphia,PA,19121,101.9,50
39.98134,-75.162859,1805,N Bouvier St,Philadelphia,PA,19121,104.7,30
39.984783,-75.151676,2121,N Marvine St,Philadelphia,PA,19122,71,20
40.012891,-75.187647,3408,Sunnyside Ave,Philadelphia,PA,19129,168.6,30
40.012832,-75.187752,3410,Sunnyside Ave,Philadelphia,PA,19129,165,20
39.979801,-75.160701,1717,N 16th St,Philadelphia,PA,19121,95.9,30
39.975697,-75.155768,1223,Jefferson St,Philadelphia,PA,19122,78.8,30
39.976755,-75.155694,1226,W Oxford St,Philadelphia,PA,19122,89.6,30
39.976508,-75.155395,1532,Saratoga Pl,Philadelphia,PA,19122,85.1,30
40.012984,-75.187381,3424,Vaux St,Philadelphia,PA,19129,174.8,30
39.981682,-75.162453,1830,N 17th St,Philadelphia,PA,19121,103.7,40
39.983235,-75.164059,1925,N Gratz St,Philadelphia,PA,19121,96.1,30
39.974601,-75.163149,1326-30,N Smedley St,Philadelphia,PA,19121,93,10
39.986047,-75.160607,1633,Edgley St,Philadelphia,PA,19121,90.1,20
39.98604,-75.160555,1631,Edgley St,Philadelphia,PA,19121,90.4,20
39.986033,-75.160502,1629,Edgley St,Philadelphia,PA,19121,90.5,20
39.98228,-75.165857,1835,N Uber St,Philadelphia,PA,19121,99.8,30
39.983194,-75.164068,1923,N Gratz St,Philadelphia,PA,19121,96.3,30
39.97824,-75.164295,1735,W Oxford St,Philadelphia,PA,19121,107.9,30
39.975872,-75.159947,1439,N 15th St,Philadelphia,PA,19121,92.7,50
39.986027,-75.160453,1627,Edgley St,Philadelphia,PA,19121,90.4,20
40.013601,-75.194804,3600,Merrick Rd,Philadelphia,PA,19129,167.6,20
39.98602,-75.160405,1625,Edgley St,Philadelphia,PA,19121,90.5,20
39.977699,-75.166537,1522,N 19th St,Philadelphia,PA,19121,110,20
39.97753,-75.166552,1518,N 19th St,Philadelphia,PA,19121,109.4,40
39.986009,-75.160353,1623,Edgley St,Philadelphia,PA,19121,90.4,20
39.986001,-75.160299,1621,Edgley St,Philadelphia,PA,19121,90.4,20
39.976561,-75.155384,1534,Saratoga Pl,Philadelphia,PA,19122,85.5,30
39.97576,-75.155049,1510,N 12th St,Philadelphia,PA,19122,80.2,30
39.978109,-75.161955,1605,Willington St,Philadelphia,PA,19121,99.9,30
39.978071,-75.161977,1603,Willington St,Philadelphia,PA,19121,100.1,30
40.012787,-75.195768,3459,Cresson St,Philadelphia,PA,19129,127.6,20
40.008018,-75.192747,4132-38,Ridge Ave,Philadelphia,PA,19129,26.8,20
39.9761,-75.151624,1548,N 10th St,Philadelphia,PA,19122,72.2,20
39.97605,-75.151635,1546,N 10th St,Philadelphia,PA,19122,71.9,20
39.981613,-75.160289,1817-59,N 16th St,Philadelphia,PA,19121,96.8,10
40.013006,-75.195084,3627,Fisk Ave,Philadelphia,PA,19129,135.2,30
40.012711,-75.194704,3626,Fisk Ave,Philadelphia,PA,19129,135.6,20
40.012704,-75.194773,3628,Fisk Ave,Philadelphia,PA,19129,134.5,20
39.985995,-75.160247,1619,Edgley St,Philadelphia,PA,19121,90.4,20
39.985987,-75.160195,1617,Edgley St,Philadelphia,PA,19121,90.5,20
39.97741,-75.166077,1517,N 19th St,Philadelphia,PA,19121,109.2,40
39.975051,-75.160025,1411,N 15th St,Philadelphia,PA,19121,88,60
39.985974,-75.160087,1613,Edgley St,Philadelphia,PA,19121,90.7,20
40.016767,-75.189606,3805,Vaux St,Philadelphia,PA,19129,200.8,20
39.980022,-75.165181,1702,N Gratz St,Philadelphia,PA,19121,104.5,10
39.977048,-75.166077,1827,Jefferson St,Philadelphia,PA,19121,106.5,20
39.979016,-75.166865,1919,Turner St,Philadelphia,PA,19121,111.6,20
39.976782,-75.155897,1232,W Oxford St,Philadelphia,PA,19122,88.3,30
40.01271,-75.194874,3630,Fisk Ave,Philadelphia,PA,19129,133.5,20
39.975924,-75.155014,1516,N 12th St,Philadelphia,PA,19122,81.4,30
39.984431,-75.163871,2012,N Cleveland St,Philadelphia,PA,19121,93.4,20
39.976943,-75.161283,1519-21,N 16th St,Philadelphia,PA,19121,102,40
39.978165,-75.160289,1617,N Sydenham St,Philadelphia,PA,19121,98.3,30
39.977588,-75.166038,1523,N 19th St,Philadelphia,PA,19121,109.8,40
40.006119,-75.185638,3425,W Allegheny Ave,Philadelphia,PA,19132,83.8,30
40.015405,-75.191555,3428-32,W Coulter St,Philadelphia,PA,19129,182.2,10
39.985063,-75.163279,2038,N 18th St,Philadelphia,PA,19121,89,30
40.011067,-75.186847,3426,Indian Queen Ln,Philadelphia,PA,19129,154.4,20
39.98714,-75.148734,2305,N 10th St,Philadelphia,PA,19133,92.5,30
39.976695,-75.155231,1212,W Oxford St,Philadelphia,PA,19122,86.5,30
40.013443,-75.186826,3426,Barclay St,Philadelphia,PA,19129,180.8,30
40.017752,-75.190559,3907,Vaux St,Philadelphia,PA,19129,212.3,30
39.986893,-75.149824,1024,W Dauphin St,Philadelphia,PA,19133,85.6,40
40.011951,-75.192334,3553-55,New Queen St,Philadelphia,PA,19129,117.6,10
40.010384,-75.189384,3527,Indian Queen Ln,Philadelphia,PA,19129,116.3,30
39.983509,-75.164444,1934,N Gratz St,Philadelphia,PA,19121,95.1,30
39.975785,-75.167455,1911,Master St,Philadelphia,PA,19121,104.5,30
39.977327,-75.165785,1516,N Gratz St,Philadelphia,PA,19121,107.4,40
39.982667,-75.148125,2021,N 9th St,Philadelphia,PA,19122,56.4,30
39.982704,-75.148117,2023,N 9th St,Philadelphia,PA,19122,56.3,30
39.982743,-75.148109,2025,N 9th St,Philadelphia,PA,19122,56.4,30
39.982569,-75.147967,2016,N Darien St,Philadelphia,PA,19122,56.8,20
39.97839,-75.165435,1811,W Oxford St,Philadelphia,PA,19121,109.5,30
40.009841,-75.19242,3314,Creswell St,Philadelphia,PA,19129,60.6,30
40.009814,-75.192505,3316,Creswell St,Philadelphia,PA,19129,59,30
40.009799,-75.192555,3318,Creswell St,Philadelphia,PA,19129,58.3,20
40.011096,-75.186796,3424,Indian Queen Ln,Philadelphia,PA,19129,155.8,20
39.976297,-75.163623,1438,N 17th St,Philadelphia,PA,19121,107.8,30
39.982121,-75.161481,1854,Willington St,Philadelphia,PA,19121,103.8,40
39.984778,-75.160893,1633,Fontain St,Philadelphia,PA,19121,98.2,20
39.984771,-75.16084,1631,Fontain St,Philadelphia,PA,19121,98.5,20
39.983168,-75.147839,2048,N Darien St,Philadelphia,PA,19122,61.5,20
39.983096,-75.147855,2044,N Darien St,Philadelphia,PA,19122,61,20
40.005801,-75.187321,3522,W Allegheny Ave,Philadelphia,PA,19132,70.7,20
40.00577,-75.187264,3520,W Allegheny Ave,Philadelphia,PA,19132,70.5,30
40.005716,-75.187466,3927,Ridge Ave,Philadelphia,PA,19132,72.5,30
40.011183,-75.186641,3418,Indian Queen Ln,Philadelphia,PA,19129,161.3,20
40.011153,-75.186692,3420,Indian Queen Ln,Philadelphia,PA,19129,160.5,20
39.982598,-75.148139,2017,N 9th St,Philadelphia,PA,19122,55.4,30
39.982634,-75.148132,2019,N 9th St,Philadelphia,PA,19122,55.6,30
40.010816,-75.18672,3427,Crawford St,Philadelphia,PA,19129,149.1,20
40.01076,-75.186803,3431,Crawford St,Philadelphia,PA,19129,147,20
40.010757,-75.187544,3331,Conrad St,Philadelphia,PA,19129,134.4,30
40.010788,-75.187591,3333,Conrad St,Philadelphia,PA,19129,134.2,30
40.010817,-75.187644,3335,Conrad St,Philadelphia,PA,19129,133.9,30
40.013248,-75.193752,3583,Calumet St,Philadelphia,PA,19129,148.1,20
40.013312,-75.193686,3579,Calumet St,Philadelphia,PA,19129,150.2,20
39.974389,-75.161967,1327,N 16th St,Philadelphia,PA,19121,92.3,40
39.974488,-75.161153,1514,Master St,Philadelphia,PA,19121,98,10
39.974286,-75.160908,1326,N 15th St,Philadelphia,PA,19121,87.6,40
39.974423,-75.160769,1332,N 15th St,Philadelphia,PA,19121,90,40
39.976704,-75.155305,1214,W Oxford St,Philadelphia,PA,19122,88.6,30
40.010265,-75.186778,3444,Crawford St,Philadelphia,PA,19129,139,20
40.01024,-75.18682,3446,Crawford St,Philadelphia,PA,19129,139.5,20
40.010211,-75.186852,3448,Crawford St,Philadelphia,PA,19129,138.6,20
39.983871,-75.159464,1528,Page St,Philadelphia,PA,19121,106,20
39.983843,-75.159258,1520,Page St,Philadelphia,PA,19121,106.6,20
39.977324,-75.16534,1519,N Gratz St,Philadelphia,PA,19121,107.5,30
39.980621,-75.166226,1715,N Uber St,Philadelphia,PA,19121,109.6,20
40.011313,-75.186432,3410,Indian Queen Ln,Philadelphia,PA,19129,166.9,30
39.978591,-75.167452,1601,N 20th St,Philadelphia,PA,19121,113.1,20
39.976436,-75.16429,1416,N Bouvier St,Philadelphia,PA,19121,105.3,20
39.98383,-75.159153,1516,Page St,Philadelphia,PA,19121,106.6,20
39.985355,-75.16485,2036,N 19th St,Philadelphia,PA,19121,95.9,40
39.985343,-75.16519,1917,Fontain St,Philadelphia,PA,19121,96.4,20
39.98389,-75.159619,1534,Page St,Philadelphia,PA,19121,105.4,30
39.985358,-75.165298,1921,Fontain St,Philadelphia,PA,19121,96.6,20
39.983863,-75.159414,1526,Page St,Philadelphia,PA,19121,106.1,30
40.013579,-75.18698,3434,Barclay St,Philadelphia,PA,19129,180.4,30
39.984814,-75.163518,2035,N Cleveland St,Philadelphia,PA,19121,91.4,20
39.984853,-75.163509,2037,N Cleveland St,Philadelphia,PA,19121,91.2,20
40.010019,-75.194601,3706,Stanton St,Philadelphia,PA,19129,68.8,30
39.983137,-75.16291,1735,Monument St,Philadelphia,PA,19121,98.3,30
39.98323,-75.162256,1700,Arlington St,Philadelphia,PA,19121,99.1,20
39.983236,-75.162305,1702,Arlington St,Philadelphia,PA,19121,98.7,20
40.011307,-75.189969,3532,Sunnyside Ave,Philadelphia,PA,19129,118.5,30
40.011334,-75.189927,3530,Sunnyside Ave,Philadelphia,PA,19129,117.9,30
40.013545,-75.186941,3432,Barclay St,Philadelphia,PA,19129,182.2,30
39.982768,-75.162468,1716,Monument St,Philadelphia,PA,19121,102.1,30
40.013613,-75.187018,3436,Barclay St,Philadelphia,PA,19129,181.7,30
39.984685,-75.149071,933,Edgley St,Philadelphia,PA,19122,71.5,20
40.011215,-75.186379,3318,Scotts Ln,Philadelphia,PA,19129,165.4,20
40.011168,-75.186359,3316,Scotts Ln,Philadelphia,PA,19129,164.7,20
40.010596,-75.187042,3441,Crawford St,Philadelphia,PA,19129,141.7,20
39.984566,-75.159279,1533,Fontain St,Philadelphia,PA,19121,103.1,20
39.976502,-75.155719,1533,N 13th St,Philadelphia,PA,19122,87.6,30
40.009838,-75.194724,3716,Stanton St,Philadelphia,PA,19129,60.1,30
39.983877,-75.159516,1530,Page St,Philadelphia,PA,19121,105.7,20
39.985391,-75.16556,1931,Fontain St,Philadelphia,PA,19121,97.1,20
39.985398,-75.165613,1933,Fontain St,Philadelphia,PA,19121,97.6,20
39.985405,-75.165665,1935,Fontain St,Philadelphia,PA,19121,97.6,20
39.985696,-75.165803,1938,Diamond St,Philadelphia,PA,19121,100.7,30
39.985562,-75.164702,1900,Diamond St,Philadelphia,PA,19121,96.5,40
39.98467,-75.157885,1428,Diamond St,Philadelphia,PA,19121,102.3,40
39.979147,-75.167227,1627,N 20th St,Philadelphia,PA,19121,110.4,30
40.009106,-75.193305,3645,Indian Queen Ln,Philadelphia,PA,19129,41,30
40.009078,-75.193442,3649-51,Indian Queen Ln,Philadelphia,PA,19129,37.1,30
39.986398,-75.151139,1107,W Colona St,Philadelphia,PA,19133,72.1,20
39.986418,-75.151192,1109,W Colona St,Philadelphia,PA,19133,71.9,20
39.986712,-75.1519,1138,W Nevada St,Philadelphia,PA,19133,71,20
39.979354,-75.168259,2014,Nicholas St,Philadelphia,PA,19121,111.4,30
39.984276,-75.16058,1607,Page St,Philadelphia,PA,19121,101.2,20
39.981774,-75.161878,1839,N 17th St,Philadelphia,PA,19121,103.9,40
39.974917,-75.16088,1501,Master St,Philadelphia,PA,19121,94.4,40
40.01163,-75.193468,3630,Stanton St,Philadelphia,PA,19129,106.5,40
40.014288,-75.192373,3501,Midvale Ave,Philadelphia,PA,19129,139.5,50
39.985473,-75.164178,1830,Diamond St,Philadelphia,PA,19121,95.5,40
39.975902,-75.149601,1557,N 9th St,Philadelphia,PA,19122,58.6,30
39.975861,-75.14961,1555,N 9th St,Philadelphia,PA,19122,58.6,30
39.97582,-75.14962,1553,N 9th St,Philadelphia,PA,19122,58.3,30
39.986313,-75.148872,2241,N 10th St,Philadelphia,PA,19133,85.4,20
39.986267,-75.148882,2239,N 10th St,Philadelphia,PA,19133,84.9,20
39.986223,-75.148929,2237,N 10th St,Philadelphia,PA,19133,84.1,30
39.985322,-75.165033,1911,Fontain St,Philadelphia,PA,19121,96.1,20
39.986463,-75.151545,1123,W Colona St,Philadelphia,PA,19133,70.1,20
39.986624,-75.151505,1124,W Nevada St,Philadelphia,PA,19133,72.8,20
39.985103,-75.167132,2014,N Woodstock St,Philadelphia,PA,19121,102.3,30
39.985143,-75.167124,2016,N Woodstock St,Philadelphia,PA,19121,102.2,30
39.983729,-75.158246,2011,N 15th St,Philadelphia,PA,19121,107.2,40
39.986332,-75.161388,2126,N 17th St,Philadelphia,PA,19121,86.9,40
39.979924,-75.162291,1713,N 17th St,Philadelphia,PA,19121,100,40
39.983683,-75.15935,1523,W Norris St,Philadelphia,PA,19121,109.5,30
39.98369,-75.159406,1525,W Norris St,Philadelphia,PA,19121,109,40
39.984973,-75.164498,2033,N 19th St,Philadelphia,PA,19121,94.5,20
39.983697,-75.159463,1527,W Norris St,Philadelphia,PA,19121,108.8,40
40.010453,-75.186418,3430,Crawford St,Philadelphia,PA,19129,146.2,30
39.976764,-75.1679,1431-33,N 20th St,Philadelphia,PA,19121,110.5,30
39.976961,-75.167851,1441,N 20th St,Philadelphia,PA,19121,110.8,30
39.979791,-75.16199,1710,Willington St,Philadelphia,PA,19121,97.7,30
39.981153,-75.165786,1726,N 19th St,Philadelphia,PA,19121,109.8,10
39.976544,-75.167808,1917,Harlan St,Philadelphia,PA,19121,109.5,10
40.014321,-75.188952,3404,W Queen Ln,Philadelphia,PA,19129,193.3,30
39.986185,-75.161651,1713,Edgley St,Philadelphia,PA,19121,89.8,30
40.012768,-75.18984,3461,Ainslie St,Philadelphia,PA,19129,173.4,10
40.007284,-75.190043,4028,Ridge Ave,Philadelphia,PA,19129,33.1,20
39.986212,-75.161864,1721,Edgley St,Philadelphia,PA,19121,89.5,30
40.017739,-75.189785,3902,Henry Ave,Philadelphia,PA,19129,221.5,30
40.01791,-75.189938,3904-6,Henry Ave,Philadelphia,PA,19129,220.2,10
39.984931,-75.161987,1715,Fontain St,Philadelphia,PA,19121,93.8,20
39.986484,-75.151711,1129,W Colona St,Philadelphia,PA,19133,69.1,20
39.98307,-75.165426,1908,Monument St,Philadelphia,PA,19121,94.9,20
39.975097,-75.148682,1509,N 8th St,Philadelphia,PA,19122,53,20
39.974066,-75.154056,1115,Master St,Philadelphia,PA,19122,63.3,20
40.010491,-75.192802,3646,Midvale Ave,Philadelphia,PA,19129,60.5,30
39.985922,-75.148961,2223,N 10th St,Philadelphia,PA,19133,80.4,30
39.986788,-75.168114,2122,N 21st St,Philadelphia,PA,19121,108.8,40
40.010563,-75.18709,3443,Crawford St,Philadelphia,PA,19129,139.7,10
39.985419,-75.16577,1939,Fontain St,Philadelphia,PA,19121,98,20
39.983823,-75.159923,2005,N 16th St,Philadelphia,PA,19121,105.3,40
39.98373,-75.159687,1535,W Norris St,Philadelphia,PA,19121,108,40
40.013548,-75.19356,3569,Calumet St,Philadelphia,PA,19129,156.4,30
40.013589,-75.193531,3567,Calumet St,Philadelphia,PA,19129,157,30
39.976716,-75.166892,1904,Jefferson St,Philadelphia,PA,19121,109.1,20
39.983695,-75.158873,2000-16,N 15th St,Philadelphia,PA,19121,108.3,30
39.984755,-75.164544,2023,N 19th St,Philadelphia,PA,19121,93.6,30
39.985371,-75.165403,1925,Fontain St,Philadelphia,PA,19121,96.9,20
39.973387,-75.156505,1316,Patrick Henry Pl,Philadelphia,PA,19122,69.1,20
39.987444,-75.1683,2151,N Van Pelt St,Philadelphia,PA,19121,113,30
39.9874,-75.16831,2149,N Van Pelt St,Philadelphia,PA,19121,112.7,20
40.013514,-75.193591,3571,Calumet St,Philadelphia,PA,19129,156,30
39.986425,-75.168053,2101,Diamond St,Philadelphia,PA,19121,107.1,40
39.973811,-75.154848,1338,Kings Pl,Philadelphia,PA,19122,65.1,30
40.010356,-75.192528,3319,Arnold St,Philadelphia,PA,19129,59.7,20
39.986918,-75.168086,2128,N 21st St,Philadelphia,PA,19121,109.2,40
39.987487,-75.168291,2153,N Van Pelt St,Philadelphia,PA,19121,113,30
39.984478,-75.164383,2010,N Gratz St,Philadelphia,PA,19121,93.9,20
39.98373,-75.157963,2014,N Carlisle St,Philadelphia,PA,19121,106,20
39.976342,-75.165215,1416,N 18th St,Philadelphia,PA,19121,102.5,30
39.98336,-75.164032,1931,N Gratz St,Philadelphia,PA,19121,95.6,20
39.98647,-75.151598,1125,W Colona St,Philadelphia,PA,19133,69.5,20
39.984087,-75.158167,2027,N 15th St,Philadelphia,PA,19121,106,30
40.006207,-75.185058,3210,N 34th St,Philadelphia,PA,19129,94.3,30
40.00625,-75.185049,3212,N 34th St,Philadelphia,PA,19129,98.3,30
39.977412,-75.150661,1625-41,N 10th St,Philadelphia,PA,19122,66.9,10
39.986587,-75.151211,1114,W Nevada St,Philadelphia,PA,19133,74.1,20
39.982185,-75.156577,1901-39,N Broad St,Philadelphia,PA,19122,90.8,80
40.010727,-75.186849,3433,Crawford St,Philadelphia,PA,19129,145.3,20
39.985733,-75.166034,1946,Diamond St,Philadelphia,PA,19121,100.9,40
39.983908,-75.158206,2019,N 15th St,Philadelphia,PA,19121,106.5,40
39.984643,-75.157676,1422,Diamond St,Philadelphia,PA,19121,101.4,40
39.983523,-75.158032,1429,W Norris St,Philadelphia,PA,19121,106.5,40
40.008798,-75.178896,2901-27,Henry Ave,Philadelphia,PA,19129,141.7,30
39.976452,-75.166315,1417,N 19th St,Philadelphia,PA,19121,106.3,30
39.983567,-75.15836,1441,W Norris St,Philadelphia,PA,19121,107.9,40
39.985267,-75.164869,2032,N 19th St,Philadelphia,PA,19121,95.3,40
40.015498,-75.189207,3335,W Penn St,Philadelphia,PA,19129,196.4,30
39.985408,-75.166003,2033,N 20th St,Philadelphia,PA,19121,99.5,20
40.010159,-75.186935,3452,Crawford St,Philadelphia,PA,19129,135.8,30
40.010291,-75.186737,3442,Crawford St,Philadelphia,PA,19129,140.4,20
40.010788,-75.186762,3429,Crawford St,Philadelphia,PA,19129,147.8,20
39.976182,-75.155904,1522,Dondill Pl,Philadelphia,PA,19122,83.7,30
39.97588,-75.155971,1510,Dondill Pl,Philadelphia,PA,19122,81.2,30
39.98535,-75.165244,1919,Fontain St,Philadelphia,PA,19121,96.5,20
39.987153,-75.160567,2212,N Chadwick St,Philadelphia,PA,19132,82.3,20
39.976443,-75.166007,1410,N Gratz St,Philadelphia,PA,19121,106.4,30
39.986004,-75.164599,1901,Diamond St,Philadelphia,PA,19121,96.9,40
39.987304,-75.160534,2220,N Chadwick St,Philadelphia,PA,19132,83,20
39.985551,-75.161148,1641,Diamond St,Philadelphia,PA,19121,95,40
39.984887,-75.164516,2029,N 19th St,Philadelphia,PA,19121,93.7,40
39.976219,-75.148559,737,W Oxford St,Philadelphia,PA,19122,54.9,20
39.976573,-75.148361,1619,N 8th St,Philadelphia,PA,19122,57.6,30
39.976646,-75.148413,1623,N 8th St,Philadelphia,PA,19122,57.5,30
39.976811,-75.148309,1631,N 8th St,Philadelphia,PA,19122,58.8,30
39.976768,-75.148318,1629,N 8th St,Philadelphia,PA,19122,58.6,30
39.976724,-75.148327,1627,N 8th St,Philadelphia,PA,19122,58.4,30
39.976876,-75.148295,1635,N 8th St,Philadelphia,PA,19122,58.9,30
39.976962,-75.148275,1637,N 8th St,Philadelphia,PA,19122,58.9,30
39.976403,-75.155741,1529,N 13th St,Philadelphia,PA,19122,86.8,30
39.976739,-75.155566,1222,W Oxford St,Philadelphia,PA,19122,89.3,30
39.97673,-75.155504,1220,W Oxford St,Philadelphia,PA,19122,89.2,30
39.98625,-75.154253,1305,W Susquehanna Ave,Philadelphia,PA,19122,78.6,40
40.010872,-75.186638,3423,Crawford St,Philadelphia,PA,19129,151.4,20
39.980807,-75.165008,1738,N Gratz St,Philadelphia,PA,19121,107.7,30
39.983712,-75.159577,1531,W Norris St,Philadelphia,PA,19121,108.4,40
39.983741,-75.15974,1537,W Norris St,Philadelphia,PA,19121,107.4,40
39.975512,-75.165692,1813,Master St,Philadelphia,PA,19121,99.6,30
39.975503,-75.165621,1811,Master St,Philadelphia,PA,19121,99.4,40
40.011755,-75.191981,3578,New Queen St,Philadelphia,PA,19129,117.4,30
39.981462,-75.148205,1940,N Darien St,Philadelphia,PA,19122,48.9,20
40.009899,-75.194339,3673,Eveline St,Philadelphia,PA,19129,60.5,30
39.983076,-75.162452,1717,Monument St,Philadelphia,PA,19121,100.4,30
39.983331,-75.163024,1732,Arlington St,Philadelphia,PA,19121,95.9,20
39.983288,-75.162698,1718,Arlington St,Philadelphia,PA,19121,97.2,20
39.976539,-75.154031,1122,W Oxford St,Philadelphia,PA,19122,83.3,30
39.97653,-75.15396,1120,W Oxford St,Philadelphia,PA,19122,82.2,30
39.975983,-75.155949,1514,Dondill Pl,Philadelphia,PA,19122,82.2,30
39.975934,-75.155959,1512,Dondill Pl,Philadelphia,PA,19122,81.8,30
39.975725,-75.155979,1229,Jefferson St,Philadelphia,PA,19122,80.3,30
39.975735,-75.156048,1231,Jefferson St,Philadelphia,PA,19122,80.3,30
39.975717,-75.155908,1227,Jefferson St,Philadelphia,PA,19122,79.7,30
40.013288,-75.190451,3470,W Queen Ln,Philadelphia,PA,19129,173.6,30
39.980584,-75.159218,1816,N 15th St,Philadelphia,PA,19121,96.9,10
39.983719,-75.159633,1533,W Norris St,Philadelphia,PA,19121,108.2,40
39.983675,-75.159295,1521,W Norris St,Philadelphia,PA,19121,109.2,40
39.983668,-75.159239,1519,W Norris St,Philadelphia,PA,19121,109.6,30
39.983661,-75.159182,1517,W Norris St,Philadelphia,PA,19121,109,40
39.983857,-75.159361,1524,Page St,Philadelphia,PA,19121,106.4,30
39.983851,-75.159309,1522,Page St,Philadelphia,PA,19121,106.4,30
40.013654,-75.187442,3447,Vaux St,Philadelphia,PA,19129,180.7,30
39.983879,-75.167988,1902,N Woodstock St,Philadelphia,PA,19121,100.5,20
40.009463,-75.194849,4235,Ridge Ave,Philadelphia,PA,19129,33.9,30
40.009589,-75.194551,3691,Eveline St,Philadelphia,PA,19129,45.8,30
39.980165,-75.162237,1723,N 17th St,Philadelphia,PA,19121,100.4,40
39.974639,-75.167169,1312,N 19th St,Philadelphia,PA,19121,105.6,30
39.982495,-75.147982,2012,N Darien St,Philadelphia,PA,19122,56.8,10
39.982567,-75.166193,1864,N Uber St,Philadelphia,PA,19121,97.8,20
39.979302,-75.165661,1637,N 19th St,Philadelphia,PA,19121,106.5,30
39.98341,-75.163193,1935,N 18th St,Philadelphia,PA,19121,94.6,40
39.976259,-75.166354,1413,N 19th St,Philadelphia,PA,19121,105.6,30
40.009942,-75.19205,3312,Creswell St,Philadelphia,PA,19129,72.4,20
39.973077,-75.149107,740,Master St,Philadelphia,PA,19122,43.7,20
39.985981,-75.160141,1615,Edgley St,Philadelphia,PA,19121,90.6,20
40.01317,-75.190267,3475,Tilden St,Philadelphia,PA,19129,172.2,30
39.981738,-75.151429,1915,N 11th St,Philadelphia,PA,19122,71,10
39.986496,-75.163799,2128,N Gratz St,Philadelphia,PA,19121,93.2,40
39.986501,-75.152104,1143,W Colona St,Philadelphia,PA,19133,68,20
40.010674,-75.187445,3327,Conrad St,Philadelphia,PA,19129,135.3,30
39.978807,-75.167849,1608,N 20th St,Philadelphia,PA,19121,112.4,30
39.978711,-75.168034,2007,W Oxford St,Philadelphia,PA,19121,113.2,40
39.978881,-75.165759,1623,N 19th St,Philadelphia,PA,19121,108.7,40
40.011152,-75.187734,3469,Indian Queen Ln,Philadelphia,PA,19129,139.2,30
40.005842,-75.183447,3301,W Allegheny Ave,Philadelphia,PA,19132,108.4,30
40.012564,-75.18695,3400,Vaux St,Philadelphia,PA,19129,180.1,30
39.985676,-75.149014,2211,N 10th St,Philadelphia,PA,19133,77.1,20
39.985643,-75.149075,2209,N 10th St,Philadelphia,PA,19133,76.2,30
40.016429,-75.188569,3306,Midvale Ave,Philadelphia,PA,19129,199.7,30
39.985623,-75.165354,1922,Diamond St,Philadelphia,PA,19121,99.5,40
40.012111,-75.18635,3354,Vaux St,Philadelphia,PA,19129,186.3,30
39.97893,-75.165746,1625,N 19th St,Philadelphia,PA,19121,108.5,40
39.981112,-75.148015,1925,N Darien St,Philadelphia,PA,19122,47.7,20
40.009575,-75.192576,3611,Indian Queen Ln,Philadelphia,PA,19129,67.8,30
39.982645,-75.163343,1903,N 18th St,Philadelphia,PA,19121,97.6,40
39.975159,-75.165639,1810,Master St,Philadelphia,PA,19121,99.7,30
40.009857,-75.192939,3702,Midvale Ave,Philadelphia,PA,19129,49.2,30
39.979409,-75.160457,1702,N Sydenham St,Philadelphia,PA,19121,96,30
39.976401,-75.155418,1528,Saratoga Pl,Philadelphia,PA,19122,84.3,30
39.985987,-75.164355,1835,Diamond St,Philadelphia,PA,19121,93,50
40.011878,-75.18854,3468,Division St,Philadelphia,PA,19129,144.9,20
39.984266,-75.149162,2109-17,N 10th St,Philadelphia,PA,19122,64.6,20
39.98678,-75.153311,2234,N Camac St,Philadelphia,PA,19133,72.9,40
39.975599,-75.153353,1513,Guilford Pl,Philadelphia,PA,19122,73.9,20
39.983265,-75.147997,2053,N 9th St,Philadelphia,PA,19122,60.7,30
40.01203,-75.186268,3350,Vaux St,Philadelphia,PA,19129,186,30
39.98688,-75.163714,2140-42,N Gratz St,Philadelphia,PA,19121,90.8,20
40.011876,-75.186535,3421,Indian Queen Ln,Philadelphia,PA,19129,179.1,30
40.015466,-75.189691,3340,Midvale Ave,Philadelphia,PA,19129,177.5,20
39.979872,-75.165402,1821-39,Cecil B Moore Ave,Philadelphia,PA,19121,103.6,30
39.975991,-75.149136,810,W Oxford St,Philadelphia,PA,19122,56.7,30
40.015653,-75.189499,3334,Midvale Ave,Philadelphia,PA,19129,182.4,10
39.974432,-75.161957,1329,N 16th St,Philadelphia,PA,19121,93.4,40
39.985457,-75.166444,2040,N 20th St,Philadelphia,PA,19121,99.7,30
40.016053,-75.187843,3304,W Penn St,Philadelphia,PA,19129,212.9,10
40.016133,-75.187739,3300,W Penn St,Philadelphia,PA,19129,212.2,30
40.009531,-75.192723,3617,Indian Queen Ln,Philadelphia,PA,19129,55.7,30
40.013489,-75.194088,4323,Dobson St,Philadelphia,PA,19129,164.8,20
39.982059,-75.154121,1901-59,N 13th St,Philadelphia,PA,19122,80.2,50
40.012356,-75.187473,3423,Bowman St,Philadelphia,PA,19129,175.6,30
40.016027,-75.18852,3315,W Penn St,Philadelphia,PA,19129,207.8,20
40.015924,-75.188653,3319,W Penn St,Philadelphia,PA,19129,206.9,20
40.011645,-75.195831,3707,Palisades Dr,Philadelphia,PA,19129,97.3,30
39.974474,-75.161943,1331,N 16th St,Philadelphia,PA,19121,94,40
39.974517,-75.16193,1333,N 16th St,Philadelphia,PA,19121,94.4,40
39.975401,-75.153395,1505,Guilford Pl,Philadelphia,PA,19122,72.4,20
39.976178,-75.153656,1537,Queens Pl,Philadelphia,PA,19122,80.4,30
40.012645,-75.195459,3447-49,Cresson St,Philadelphia,PA,19129,128.8,10
39.976126,-75.153665,1535,Queens Pl,Philadelphia,PA,19122,80.3,30
39.985012,-75.148947,931,French St,Philadelphia,PA,19122,72.7,20
40.011909,-75.186499,3419,Indian Queen Ln,Philadelphia,PA,19129,180.2,30
40.010828,-75.192667,3632,Midvale Ave,Philadelphia,PA,19129,68.4,30
39.983561,-75.162671,1715,Arlington St,Philadelphia,PA,19121,96.5,40
39.986831,-75.168104,2124,N 21st St,Philadelphia,PA,19121,109.1,20
39.986655,-75.151735,1132,W Nevada St,Philadelphia,PA,19133,71.6,30
39.986663,-75.151793,1134,W Nevada St,Philadelphia,PA,19133,71.3,20
39.975251,-75.166359,1836,Master St,Philadelphia,PA,19121,102.4,10
39.985063,-75.165321,1918,Fontain St,Philadelphia,PA,19121,96.5,20
40.010848,-75.187248,3440-42,Indian Queen Ln,Philadelphia,PA,19129,145.5,30
39.985496,-75.165984,2037,N 20th St,Philadelphia,PA,19121,100,30
40.010629,-75.186994,3439,Crawford St,Philadelphia,PA,19129,142,20
40.010949,-75.187055,3434,Indian Queen Ln,Philadelphia,PA,19129,148.6,30
40.016743,-75.193071,3421,Warden Dr,Philadelphia,PA,19129,211.4,30
39.97559,-75.158999,1432,N Broad St,Philadelphia,PA,19121,83.7,60
39.977824,-75.167617,1521,N 20th St,Philadelphia,PA,19121,114.4,20
39.975912,-75.164797,1411,N 18th St,Philadelphia,PA,19121,100.9,40
39.974054,-75.154802,1400,Kings Pl,Philadelphia,PA,19122,64.4,30
39.978768,-75.168494,2025,W Oxford St,Philadelphia,PA,19121,114.8,30
40.010509,-75.188004,3312,Conrad St,Philadelphia,PA,19129,127.7,40
40.010476,-75.18796,3310,Conrad St,Philadelphia,PA,19129,127.7,40
40.010534,-75.188067,3314,Conrad St,Philadelphia,PA,19129,127.4,40
40.01045,-75.187895,3308,Conrad St,Philadelphia,PA,19129,128,40
39.985364,-75.166012,2031,N 20th St,Philadelphia,PA,19121,98.5,30
39.980086,-75.161924,1724,Willington St,Philadelphia,PA,19121,98.7,30
39.980045,-75.161933,1722,Willington St,Philadelphia,PA,19121,98.4,30
40.012052,-75.186959,3426,Bowman St,Philadelphia,PA,19129,174.8,30
39.975209,-75.166027,1824,Master St,Philadelphia,PA,19121,100.6,30
40.0132,-75.190224,3473,Tilden St,Philadelphia,PA,19129,173,30
40.01389,-75.188384,3401,Ainslie St,Philadelphia,PA,19129,188.3,40
39.985123,-75.165798,1936,Fontain St,Philadelphia,PA,19121,98.2,20
39.975216,-75.166081,1826,Master St,Philadelphia,PA,19121,101.2,20
39.980019,-75.16227,1717,N 17th St,Philadelphia,PA,19121,100.5,30
40.011953,-75.188433,3464,Division St,Philadelphia,PA,19129,146.3,20
40.01198,-75.188371,3462,Division St,Philadelphia,PA,19129,147.1,20
40.012009,-75.188328,3460,Division St,Philadelphia,PA,19129,147.8,20
40.012134,-75.188125,3450,Division St,Philadelphia,PA,19129,152.2,30
40.012081,-75.188209,3454,Division St,Philadelphia,PA,19129,150.4,30
40.012035,-75.18829,3458,Division St,Philadelphia,PA,19129,148.5,20
39.985077,-75.165428,1922,Fontain St,Philadelphia,PA,19121,97.3,20
39.980495,-75.163441,1738,N Bouvier St,Philadelphia,PA,19121,103.2,30
39.976004,-75.149552,822,W Oxford St,Philadelphia,PA,19122,58.8,30
39.984738,-75.163532,2031,N Cleveland St,Philadelphia,PA,19121,91.6,20
39.975998,-75.149503,820,W Oxford St,Philadelphia,PA,19122,58.9,30
40.011512,-75.187799,3464,Bowman St,Philadelphia,PA,19129,151.6,30
40.011774,-75.186639,3427,Indian Queen Ln,Philadelphia,PA,19129,175.9,30
40.011273,-75.187497,3461,Indian Queen Ln,Philadelphia,PA,19129,146.2,30
40.009632,-75.189895,3556,Indian Queen Ln,Philadelphia,PA,19129,115.7,10
39.985541,-75.165973,2039,N 20th St,Philadelphia,PA,19121,99.9,40
39.985587,-75.164946,1908,Diamond St,Philadelphia,PA,19121,98.2,40
39.975493,-75.15912,1430,N Broad St,Philadelphia,PA,19121,88.8,30
39.97539,-75.159141,1428,N Broad St,Philadelphia,PA,19121,82.3,60
39.977344,-75.165025,1514,N 18th St,Philadelphia,PA,19121,106.2,30
39.984822,-75.164918,2016,N 19th St,Philadelphia,PA,19121,93.7,40
39.98199,-75.16494,1829-31,N 19th St,Philadelphia,PA,19121,100.4,20
39.986692,-75.147911,912,W Dauphin St,Philadelphia,PA,19133,87.9,20
40.011235,-75.187574,3463-65,Indian Queen Ln,Philadelphia,PA,19129,145.4,30
39.985592,-75.165126,1914,Diamond St,Philadelphia,PA,19121,98.8,40
40.011718,-75.187471,3450,Bowman St,Philadelphia,PA,19129,160.5,30
39.985612,-75.165243,1918,Diamond St,Philadelphia,PA,19121,99.5,40
40.011822,-75.187305,3442,Bowman St,Philadelphia,PA,19129,168.9,30
40.012166,-75.18679,3418,Bowman St,Philadelphia,PA,19129,178.8,30
39.97955,-75.166135,1904,Cecil B Moore Ave,Philadelphia,PA,19121,105.7,30
39.979558,-75.166191,1906,Cecil B Moore Ave,Philadelphia,PA,19121,105.6,30
40.012137,-75.186833,3420,Bowman St,Philadelphia,PA,19129,177.7,30
39.986523,-75.153368,2222,N Camac St,Philadelphia,PA,19133,71.9,30
39.978405,-75.165542,1815,W Oxford St,Philadelphia,PA,19121,110.6,40
39.978397,-75.165489,1813,W Oxford St,Philadelphia,PA,19121,110,40
39.974874,-75.154501,1433,N 12th St,Philadelphia,PA,19122,72,20
39.985378,-75.165456,1927,Fontain St,Philadelphia,PA,19121,96.9,20
39.985385,-75.165508,1929,Fontain St,Philadelphia,PA,19121,96.9,20
39.985586,-75.165968,2041,N 20th St,Philadelphia,PA,19121,100.5,20
39.975523,-75.154415,1131,Jefferson St,Philadelphia,PA,19122,76.2,20
40.017046,-75.189568,3310,W Coulter St,Philadelphia,PA,19129,208.5,20
39.985328,-75.165085,1913,Fontain St,Philadelphia,PA,19121,96.1,20
39.985451,-75.165993,2035,N 20th St,Philadelphia,PA,19121,99.8,20
39.97711,-75.165831,1508,N Gratz St,Philadelphia,PA,19121,106.6,40
39.980589,-75.165056,1728,N Gratz St,Philadelphia,PA,19121,105.8,40
39.987163,-75.159164,2219,N 16th St,Philadelphia,PA,19132,81.4,40
39.982993,-75.164554,1910,N Gratz St,Philadelphia,PA,19121,96.7,30
39.985471,-75.152803,2142,N 12th St,Philadelphia,PA,19122,68,20
39.983605,-75.163979,1943,N Gratz St,Philadelphia,PA,19121,94.9,20
40.012695,-75.189949,3471,Ainslie St,Philadelphia,PA,19129,160.9,40
40.010349,-75.193399,3697,Midvale Ave,Philadelphia,PA,19129,62,20
39.975288,-75.163313,1405,N 17th St,Philadelphia,PA,19121,98.4,20
39.974734,-75.159512,1409-17,Master St,Philadelphia,PA,19121,83.6,60
39.986641,-75.151618,1128,W Nevada St,Philadelphia,PA,19133,72.1,20
40.010322,-75.186607,3438,Crawford St,Philadelphia,PA,19129,136.4,20
39.986316,-75.162553,2117,N 18th St,Philadelphia,PA,19121,87.5,40
39.981875,-75.164723,1828,N Gratz St,Philadelphia,PA,19121,101.1,20
40.01293,-75.186622,3357,Bowman St,Philadelphia,PA,19129,183,30
39.975201,-75.165971,1822,Master St,Philadelphia,PA,19121,100.8,30
40.016572,-75.192209,3416,Warden Dr,Philadelphia,PA,19129,175.3,30
39.986875,-75.168095,2126,N 21st St,Philadelphia,PA,19121,109,40
39.987277,-75.149729,1015,W Dauphin St,Philadelphia,PA,19133,85.3,20
39.978775,-75.168547,2027,W Oxford St,Philadelphia,PA,19121,114.7,30
39.983554,-75.162615,1713,Arlington St,Philadelphia,PA,19121,96.6,40
40.01149,-75.187073,3447,Indian Queen Ln,Philadelphia,PA,19129,161.5,30
39.976692,-75.152186,1019,W Oxford St,Philadelphia,PA,19122,78,20
39.984432,-75.161333,2019,N 17th St,Philadelphia,PA,19121,97,40
39.986861,-75.153281,2238,N Camac St,Philadelphia,PA,19133,72.1,30
39.986774,-75.153641,2201-65,N 13th St,Philadelphia,PA,19133,76,40
40.005603,-75.185862,3424,W Allegheny Ave,Philadelphia,PA,19132,80,20
39.985615,-75.165298,1920,Diamond St,Philadelphia,PA,19121,99.6,40
39.985644,-75.165523,1928,Diamond St,Philadelphia,PA,19121,100.1,40
40.009656,-75.194505,3687,Eveline St,Philadelphia,PA,19129,49.1,30
40.012901,-75.186664,3359,Bowman St,Philadelphia,PA,19129,182.6,30
40.016118,-75.188964,3318,Midvale Ave,Philadelphia,PA,19129,189.6,20
40.016384,-75.188054,3301,W Penn St,Philadelphia,PA,19129,210.9,30
40.009623,-75.194528,3689,Eveline St,Philadelphia,PA,19129,47.9,30
39.98319,-75.148014,2049,N 9th St,Philadelphia,PA,19122,59.7,30
40.012143,-75.186388,3356,Vaux St,Philadelphia,PA,19129,185.9,30
40.009901,-75.192934,3700,Midvale Ave,Philadelphia,PA,19129,49.8,30
39.974424,-75.154046,1417,Kings Pl,Philadelphia,PA,19122,67,20
39.983228,-75.148005,2051,N 9th St,Philadelphia,PA,19122,60.2,30
40.012245,-75.186502,3362,Vaux St,Philadelphia,PA,19129,185.7,20
39.983446,-75.165629,1919,N Uber St,Philadelphia,PA,19121,95.9,40
39.980927,-75.161859,1625,W Montgomery Ave,Philadelphia,PA,19121,98.6,30
39.98448,-75.149167,934,Edgley St,Philadelphia,PA,19122,71.9,20
39.986265,-75.154369,1309,W Susquehanna Ave,Philadelphia,PA,19122,79.4,40
39.986272,-75.154426,1311,W Susquehanna Ave,Philadelphia,PA,19122,80,40
39.978921,-75.168226,2010,Turner St,Philadelphia,PA,19121,113,30
39.986642,-75.163767,2132-34,N Gratz St,Philadelphia,PA,19121,91.7,20
40.012344,-75.186618,3368,Vaux St,Philadelphia,PA,19129,185.3,20
39.985637,-75.165464,1926,Diamond St,Philadelphia,PA,19121,99.9,40
39.98458,-75.159383,1537,Fontain St,Philadelphia,PA,19121,103,20
39.973166,-75.154872,1313,N 12th St,Philadelphia,PA,19122,61.3,30
39.985032,-75.149094,937,French St,Philadelphia,PA,19122,72.5,20
39.979827,-75.160368,1724,N Sydenham St,Philadelphia,PA,19121,95.3,30
39.981891,-75.164996,1827,W Wilt St,Philadelphia,PA,19121,103.1,20
